{"type":"Feature","properties":{"name":"Scotland","source":"Natural Earth 10m admin 0 map units, GEOUNIT Scotland, Shetland dropped"},"geometry":{"type":"MultiPolygon","coordinates":[[[[-5.11778723899991,55.43976471600014],[-5.163563605999911,55.43488190300009],[-5.217355923999946,55.43797435100008],[-5.263091600999871,55.44721100500014],[-5.304676886999857,55.46214427299999],[-5.345692511999857,55.48265208500014],[-5.34618079299986,55.49603913000014],[-5.359364386999914,55.530462958000086],[-5.359364386999914,55.53729889500009],[-5.345692511999857,55.55027903899999],[-5.370432094999927,55.57025788000006],[-5.389068162999934,55.590236721000124],[-5.3978572259999,55.614203192],[-5.39289303299995,55.64655182500012],[-5.37938391799986,55.668117580000015],[-5.355213995999861,55.68960195500013],[-5.324330206999917,55.705023505000085],[-5.290516730999855,55.70856354400014],[-5.29735266799986,55.72284577000015],[-5.263172980999855,55.72284577000015],[-5.198312954999977,55.704331773000135],[-5.180653449999852,55.69489166900003],[-5.159982876999948,55.676214911000145],[-5.145985480999883,55.654974677000055],[-5.125965949999909,55.60553620000009],[-5.137440558999856,55.59202708500011],[-5.09422766799986,55.566555080000015],[-5.091867641999897,55.54413483300003],[-5.125233527999882,55.53693268400018],[-5.119740363999938,55.52362702000015],[-5.070790167999888,55.50934479400014],[-5.093006964999859,55.500433661000116],[-5.091053839999887,55.48729075700005],[-5.080799933999884,55.47166575700008],[-5.078236456999946,55.455308335000055],[-5.092030402999882,55.44611237200009],[-5.11778723899991,55.43976471600014]]],[[[-5.009388800999886,55.729315497000144],[-5.016184048999918,55.72284577000015],[-5.028797980999911,55.72333405200014],[-5.038482225999871,55.731878973000065],[-5.05028235599994,55.74949778899999],[-5.115589972999913,55.784369208000115],[-5.125965949999909,55.801011460000055],[-5.137562628999916,55.82904694200006],[-5.139637824999852,55.84198639500009],[-5.174224412999934,55.85537344000009],[-5.180653449999852,55.862779039000074],[-5.200795050999886,55.895493882],[-5.199533657999893,55.91107819200009],[-5.166900193999936,55.92084381700012],[-5.135975714999887,55.90595123900009],[-5.105539516999926,55.88670482000013],[-5.080922003999945,55.879584052000084],[-5.07518469999988,55.85691966400013],[-5.05028235599994,55.84577057500009],[-5.038075324999852,55.832424221000096],[-5.021839972999913,55.805609442],[-5.011463995999918,55.774481512000094],[-5.012766079999921,55.768377997000115],[-5.029774542999888,55.74949778899999],[-5.019032355999855,55.74530670800006],[-5.011341925999943,55.737697658000016],[-5.009388800999886,55.729315497000144]]],[[[-6.102365688999953,55.83124420800006],[-6.099232550999886,55.801011460000055],[-6.093088344999899,55.79169342700011],[-6.049794074999909,55.76634349199999],[-6.058257615999878,55.74274323100006],[-6.046620245999861,55.733547268000066],[-6.030384894999912,55.72907135600012],[-6.032338019999941,55.70636627800015],[-6.023508266999897,55.688137111000074],[-6.023508266999897,55.68187083500014],[-6.045725063999953,55.674261786],[-6.058257615999878,55.66014232000008],[-6.064442511999914,55.667629299000126],[-6.082427537999877,55.65208567900011],[-6.105458136999857,55.64020416900017],[-6.160023566999911,55.62665436400003],[-6.202544725999871,55.630560614],[-6.215321417999917,55.62665436400003],[-6.222767706999889,55.60553620000009],[-6.226958787999905,55.60175202000006],[-6.261870897999927,55.583807684000035],[-6.287342902999853,55.57843659100017],[-6.31118730399993,55.58323802300005],[-6.32518469999988,55.60553620000009],[-6.319243943999879,55.62824127800006],[-6.29747473899991,55.64248281500015],[-6.243234829999949,55.66014232000008],[-6.264800584999875,55.69550202000009],[-6.277088995999918,55.70400625200001],[-6.32518469999988,55.715399481000176],[-6.320952928999873,55.733465887000094],[-6.295521613999938,55.75189850500011],[-6.249989386999886,55.776841539000046],[-6.27179928299995,55.78302643400012],[-6.300445115999906,55.785793361000074],[-6.328724738999881,55.783148505],[-6.349029100999871,55.77342357000005],[-6.386586066999882,55.72231679900007],[-6.418568488999881,55.70962148600002],[-6.462961391999897,55.67446523600013],[-6.490956183999913,55.67182038000006],[-6.503529425999915,55.68134186400006],[-6.50243079299986,55.69765859600007],[-6.489654100999928,55.715399481000176],[-6.503895636999914,55.72284577000015],[-6.493234829999892,55.73924388200005],[-6.448638475999928,55.776841539000046],[-6.482167120999861,55.790472723],[-6.460804816999911,55.80320872600005],[-6.456654425999943,55.81264883000007],[-6.452788865999963,55.84088776200004],[-6.445220506999902,55.848822333],[-6.409087693999879,55.86359284100017],[-6.354481574999909,55.87742747600008],[-6.331369594999956,55.889960028000175],[-6.318348761999886,55.88670482000013],[-6.325917120999918,55.8803571640001],[-6.338205532999979,55.85199616100006],[-6.338205532999979,55.84577057500009],[-6.330718553999901,55.82782623900006],[-6.323231574999852,55.82050202000015],[-6.310902472999885,55.81842682500003],[-6.318430141999954,55.844916083],[-6.296986456999917,55.86717357000005],[-6.264800584999875,55.88540273600013],[-6.229074673999918,55.89728424700017],[-6.204253709999875,55.91657135600012],[-6.162220831999889,55.928452867000075],[-6.140126105999911,55.941351630000085],[-6.130116339999915,55.93939850500014],[-6.120228644999912,55.92942942900014],[-6.115956183999913,55.88678620000012],[-6.102365688999953,55.83124420800006]]],[[[-6.133371548999889,56.11261627800015],[-6.165638800999915,56.08148834800015],[-6.177154100999928,56.06146881700009],[-6.174305792999917,56.04376862200017],[-6.19432532499988,56.03530508000013],[-6.221669074999852,56.03082916900017],[-6.249175584999875,56.031317450000145],[-6.269886847999885,56.037543036000116],[-6.254302537999905,56.04462311400009],[-6.23265540299991,56.08161041900003],[-6.20571855399993,56.10272858300014],[-6.19823157499988,56.106268622000115],[-6.18260657499988,56.10260651200015],[-6.174305792999917,56.10643138200008],[-6.18179277299987,56.11945221600017],[-6.138010219999899,56.124701239000146],[-6.133371548999889,56.11261627800015]]],[[[-5.780181443999908,56.020738023000106],[-5.864491339999915,55.92674388200005],[-5.886341925999943,55.88670482000013],[-5.896839972999913,55.88890208500011],[-5.921538865999906,55.87128327],[-5.938140428999873,55.86627838700015],[-5.945423956999889,55.85858795800014],[-5.962066209999932,55.80475495000009],[-5.987538214999915,55.794623114000146],[-6.026600714999887,55.796087958],[-6.062408006999902,55.80947500200001],[-6.078114386999857,55.83490631700012],[-6.086903449999852,55.8829613300001],[-6.08495032499988,55.900336005000085],[-6.075184699999852,55.91596100500006],[-6.04312089799987,55.92796458500008],[-5.997425910999937,55.951727606000176],[-5.919056769999884,55.960394598000065],[-5.886341925999943,55.97614166900003],[-5.98070227799991,55.969916083000086],[-5.995594855999855,55.986029364000146],[-5.983265753999916,56.00885651200015],[-5.955189581999917,56.03473541900017],[-5.924427863999938,56.05597565300015],[-5.903960740999878,56.06484609600001],[-5.873687303999873,56.07013580900018],[-5.746490037999905,56.141750393],[-5.715931769999884,56.15314362200017],[-5.694488084999932,56.147406317],[-5.68797766799986,56.124090887000094],[-5.689320441999939,56.111761786000145],[-5.740223761999857,56.07648346600011],[-5.780181443999908,56.020738023000106]]],[[[-5.725209113999938,56.16282786700013],[-5.749134894999912,56.16107819200012],[-5.738352016999897,56.17747630400014],[-5.688303188999981,56.202053127000156],[-5.680897589999887,56.19456614799999],[-5.673654751999948,56.17894114800002],[-5.694203253999916,56.1686058610001],[-5.725209113999938,56.16282786700013]]],[[[-5.612619594999899,56.263495184000035],[-5.610585089999859,56.2494164080001],[-5.628163214999887,56.22052643400018],[-5.637440558999856,56.18927643400009],[-5.647572394999912,56.19537995000009],[-5.666656053999901,56.22247955900012],[-5.65640214799987,56.23200104400003],[-5.645334438999924,56.255926825000174],[-5.63312740799995,56.263495184000035],[-5.622954881999902,56.25763580900018],[-5.618031378999945,56.25812409100017],[-5.612619594999899,56.263495184000035]]],[[[-5.584624803999873,56.32558828300016],[-5.59044348899991,56.31362539300012],[-5.605336066999882,56.29694245000009],[-5.598988410999937,56.283921617000104],[-5.621693488999881,56.27606842700011],[-5.640288865999878,56.28278229400017],[-5.64671790299991,56.29877350500006],[-5.63312740799995,56.318752346000124],[-5.620757615999906,56.32420482],[-5.59788977799991,56.32184479400003],[-5.584624803999873,56.32558828300016]]],[[[-5.502756313999924,56.42112864800005],[-5.518055792999888,56.40387604400014],[-5.536203579999892,56.392238674000126],[-5.557972785999937,56.38646067900008],[-5.584624803999873,56.38703034100014],[-5.573963995999947,56.40289948100015],[-5.557972785999937,56.41429271000014],[-5.512359178999901,56.41543203300007],[-5.502756313999924,56.42112864800005]]],[[[-6.160023566999911,56.469549872000144],[-6.212473110999952,56.46784088700004],[-6.237456834999904,56.47003815300003],[-6.263661261999914,56.48322174700017],[-6.242054816999911,56.499579169000086],[-6.215321417999917,56.50364817900005],[-6.170562303999873,56.481146552000055],[-6.160023566999911,56.469549872000144]]],[[[-6.881581183999913,56.444281317],[-6.902455206999889,56.44375234600001],[-6.965199347999885,56.4598656270001],[-6.989898240999963,56.50364817900005],[-6.968129035999908,56.510484117000075],[-6.900502081999946,56.51666901200004],[-6.878081834999932,56.52130768400015],[-6.841135219999899,56.53473541900014],[-6.767201300999886,56.54857005400005],[-6.741851365999878,56.54783763200011],[-6.729237433999884,56.53034088700018],[-6.743316209999932,56.51780833500008],[-6.803822394999912,56.51361725500014],[-6.805572068999908,56.496893622000115],[-6.825510219999899,56.48729075700014],[-6.86929277299987,56.479641018],[-6.887521938999953,56.46210358300006],[-6.881581183999913,56.444281317]]],[[[-6.033518032999893,56.618841864],[-6.008778449999909,56.59870026200015],[-5.968251105999883,56.54466380400005],[-5.962554490999906,56.52610911700005],[-5.85220292899993,56.524155992000104],[-5.829457160999908,56.510809637000094],[-5.814035610999895,56.51666901200004],[-5.794341600999928,56.51666901200004],[-5.756662563999953,56.49005768400009],[-5.721831834999904,56.49005768400009],[-5.710357225999871,56.48484935100011],[-5.685536261999914,56.464056708000115],[-5.680897589999887,56.45184967700014],[-5.673451300999915,56.449693101000136],[-5.658843553999901,56.45172760600015],[-5.648426886999914,56.44773997599999],[-5.653553839999915,56.42796458500008],[-5.688303188999981,56.43480052299999],[-5.664947068999879,56.413885809000035],[-5.657622850999871,56.40009186400012],[-5.670318162999934,56.39378489799999],[-5.703033006999874,56.39337799700017],[-5.71743730399993,56.397365627000156],[-5.715646938999953,56.408107815000065],[-5.721669074999852,56.412339585],[-5.74233964799987,56.41429271000014],[-5.739084438999924,56.401190497000144],[-5.751088019999941,56.38939036700002],[-5.783924933999856,56.37335846600011],[-5.783924933999856,56.36591217700011],[-5.749989386999914,56.37714264500012],[-5.712228969999927,56.38019440300003],[-5.695952928999901,56.375433661000116],[-5.702707485999952,56.36456940300003],[-5.719960089999859,56.35276927300008],[-5.808705206999917,56.31891510600009],[-5.848215298999975,56.31362539300012],[-5.880116339999887,56.32558828300016],[-5.853505011999857,56.343695380000085],[-5.85220292899993,56.35285065300015],[-5.860422329999949,56.35834381700009],[-5.872670050999915,56.35773346600003],[-5.897206183999941,56.35285065300015],[-5.914784308999856,56.33551666900014],[-5.957875128999888,56.32807038],[-6.037464972999885,56.30524323100015],[-6.065988735999952,56.28921133000007],[-6.102365688999953,56.2982445330001],[-6.146962042999917,56.283921617000104],[-6.239816860999952,56.283921617000104],[-6.245757615999878,56.280747789000046],[-6.256459113999881,56.266669012000094],[-6.266835089999887,56.263495184000035],[-6.300038214999915,56.26801178600009],[-6.327504035999937,56.27724844000015],[-6.345611131999874,56.28831614799999],[-6.360178188999896,56.30361562700013],[-6.366118943999908,56.32217031500015],[-6.357004360999923,56.33633047100007],[-6.335438605999911,56.34454987200017],[-6.310292120999918,56.34735748900012],[-6.290394660999937,56.34540436400009],[-6.247222459999932,56.311672268000095],[-6.228911912999877,56.318752346000124],[-6.228911912999877,56.32558828300016],[-6.249989386999886,56.332342841000084],[-6.231760219999899,56.33690013200014],[-6.186634894999941,56.33124420800006],[-6.153920050999915,56.34479401200012],[-6.08495032499988,56.35285065300015],[-6.039906378999916,56.37103913000014],[-6.020822719999927,56.382025458],[-6.026966925999915,56.38703034100014],[-6.046945766999983,56.38397858300014],[-6.105458136999857,56.36591217700011],[-6.15404212099989,56.35895416900006],[-6.178944464999915,56.35993073100012],[-6.198557094999899,56.36961497600008],[-6.203236456999917,56.380316473],[-6.198841925999915,56.39032623900009],[-6.189198370999861,56.39777252800015],[-6.164784308999913,56.40253327000015],[-6.157215949999852,56.40737539300012],[-6.135121222999885,56.44232819200015],[-6.126535610999952,56.448431708000115],[-6.081532355999883,56.448431708000115],[-6.021839972999885,56.464097398000106],[-6.009836391999954,56.469549872000144],[-6.004017706999917,56.479681708],[-6.00328528599988,56.48940664300015],[-6.007476365999906,56.49762604400014],[-6.016672329999892,56.50364817900005],[-6.081125454999949,56.485052802000055],[-6.102365688999953,56.48322174700017],[-6.12743079299986,56.47435130400014],[-6.136789516999897,56.47943756700006],[-6.162098761999914,56.509222723000065],[-6.174305792999917,56.51666901200004],[-6.194935675999915,56.52334219],[-6.288482225999871,56.53229401200012],[-6.307728644999912,56.53729889500006],[-6.338205532999979,56.55206940300015],[-6.290394660999937,56.571966864000146],[-6.298695441999911,56.581244208],[-6.319203253999888,56.593980210000055],[-6.32518469999988,56.60610586100013],[-6.28844153599988,56.60797760600012],[-6.256255662999934,56.62034739800005],[-6.238636847999913,56.60858795800006],[-6.230213995999861,56.60858795800006],[-6.222767706999889,56.612941799000154],[-6.220285610999952,56.63226959800009],[-6.190744594999899,56.64492422100015],[-6.119048631999902,56.653876044000086],[-6.105336066999882,56.64850495000003],[-6.058257615999878,56.64020416900014],[-6.064442511999914,56.62034739800005],[-6.033518032999893,56.618841864]]],[[[-6.564116990999906,56.59870026200015],[-6.616322394999912,56.575181382],[-6.633046027999853,56.571966864000146],[-6.668934699999852,56.5777855490001],[-6.67788652299987,56.55825429900001],[-6.686838344999899,56.56378815300003],[-6.701893683999913,56.58563873900009],[-6.674468553999873,56.588446356000034],[-6.648101365999963,56.60285065300009],[-6.591379360999895,56.651841539000074],[-6.55923417899993,56.66526927300005],[-6.535633917999888,56.67084381700006],[-6.505848761999886,56.68537018400009],[-6.462310350999871,56.691229559000035],[-6.4525447259999,56.688421942],[-6.489654100999928,56.64020416900014],[-6.504953579999892,56.630072333],[-6.527251756999931,56.626532294000114],[-6.564116990999906,56.59870026200015]]],[[[-7.381988084999904,56.98753489800008],[-7.373524542999888,56.98285553600006],[-7.402414516999897,56.98338450700014],[-7.411040818999908,56.97972239799999],[-7.427235480999855,56.96857330900015],[-7.442372199999852,56.962958075000145],[-7.436838344999927,56.95368073100009],[-7.445301886999857,56.947088934000035],[-7.460804816999882,56.943182684000035],[-7.476551886999943,56.941880601000136],[-7.541411912999934,56.948716539000046],[-7.556752081999889,56.95307038000014],[-7.556223110999895,56.96263255400014],[-7.544911261999914,56.9723167990001],[-7.516509568999879,56.98118724200005],[-7.511586066999911,56.99164459800012],[-7.514027472999942,57.00291575700011],[-7.524322068999879,57.010199286000116],[-7.499908006999931,57.020086981000034],[-7.475697394999941,57.02301666900014],[-7.457102016999926,57.031561591000084],[-7.449208136999857,57.05857982000013],[-7.414418097999913,57.04490794499999],[-7.434966600999871,57.02383047100007],[-7.393950975999957,57.010199286000116],[-7.38609778599988,56.995306708000086],[-7.381988084999904,56.98753489800008]]],[[[-6.269886847999885,57.017564195000105],[-6.269886847999885,57.010199286000116],[-6.243234829999949,57.010199286000116],[-6.256743943999936,56.97378164300015],[-6.276031053999873,56.95311107000013],[-6.303618943999879,56.94399648600013],[-6.341867641999926,56.941880601000136],[-6.359771287999877,56.947333075000174],[-6.376128709999904,56.97117747600005],[-6.405384894999912,56.98053620000009],[-6.436756964999859,56.998480536000145],[-6.455474412999934,57.003973700000145],[-6.395253058999884,57.04193756700009],[-6.364247199999852,57.05565013200011],[-6.32518469999988,57.05857982000013],[-6.272938605999883,57.040228583000086],[-6.25096594999988,57.02655670800014],[-6.269886847999885,57.017564195000105]]],[[[-6.51593990799995,57.05068594000015],[-6.548247850999871,57.047593492000075],[-6.606353318999908,57.05174388200011],[-6.556304490999906,57.07013580900015],[-6.537464972999942,57.072821356000034],[-6.52586829299986,57.06712474200005],[-6.50153561099998,57.06366608300006],[-6.489654100999928,57.05857982000013],[-6.51593990799995,57.05068594000015]]],[[[-5.925445115999906,57.291693427000084],[-5.958607550999915,57.28449127800015],[-5.98485266799986,57.29043203300007],[-6.007801886999857,57.30361562700004],[-6.01390540299991,57.31745026200012],[-5.989979620999861,57.32550690300015],[-5.955718553999901,57.32160065300015],[-5.929351365999906,57.30719635600009],[-5.925445115999906,57.291693427000084]]],[[[-7.353016730999911,57.40802643400015],[-7.263579881999931,57.373928127000156],[-7.279123501999919,57.36994049700017],[-7.298410610999952,57.373928127000156],[-7.298410610999952,57.36709219000012],[-7.27635657499988,57.36473216399999],[-7.244862433999856,57.348456122000144],[-7.222645636999886,57.34658437700007],[-7.222645636999886,57.33978913000006],[-7.250355597999885,57.33185455900018],[-7.33161373599998,57.36090729400014],[-7.371083136999857,57.3876000020001],[-7.393950975999957,57.380764065000065],[-7.375721808999884,57.368109442],[-7.37047278599988,57.35512929900001],[-7.32201087099989,57.34658437700007],[-7.305287238999881,57.33234284100017],[-7.290272589999859,57.32831452],[-7.243763800999915,57.32550690300015],[-7.211822068999908,57.30487702000012],[-7.195423956999889,57.30560944200006],[-7.200347459999961,57.29096100500006],[-7.233225063999953,57.27431875200001],[-7.256743943999908,57.23672109600001],[-7.276112433999913,57.23175690300015],[-7.353016730999911,57.242905992000075],[-7.353016730999911,57.23672109600001],[-7.28880774599989,57.22589752800012],[-7.271066860999895,57.21625397300012],[-7.26219641799986,57.200873114],[-7.257720506999874,57.17975495000009],[-7.25991777299987,57.15981679900001],[-7.271066860999895,57.147935289000046],[-7.28844153599988,57.153998114000146],[-7.307606574999852,57.15582916900003],[-7.346180792999917,57.15477122600008],[-7.346180792999917,57.147935289000046],[-7.277251756999874,57.147935289000046],[-7.259999152999853,57.14004140800007],[-7.235951300999915,57.121161200000145],[-7.215891079999949,57.120062567],[-7.215891079999949,57.113836981000034],[-7.239125128999888,57.10053131700012],[-7.321685350999871,57.10993073100006],[-7.353016730999911,57.09955475500014],[-7.381988084999904,57.118353583],[-7.390695766999897,57.129055080000015],[-7.416656053999901,57.18158600500006],[-7.420399542999917,57.19773997600011],[-7.414418097999913,57.209418036000116],[-7.414418097999913,57.21625397300012],[-7.431467251999948,57.22943756700009],[-7.455433722999913,57.23672109600001],[-7.434966600999871,57.251898505],[-7.421945766999954,57.2709007830001],[-7.414947068999879,57.290106512000065],[-7.409982876999948,57.295965887000094],[-7.39708411399991,57.298163153000175],[-7.389719204999921,57.31195709800009],[-7.401519334999904,57.34235260600015],[-7.428130662999934,57.3876000020001],[-7.362863735999952,57.4078636740001],[-7.353016730999911,57.40802643400015]]],[[[-7.292469855999855,57.48529694200009],[-7.263579881999931,57.483099677],[-7.265736456999917,57.478013414000074],[-7.271066860999895,57.47626373900006],[-7.262521938999953,57.47211334800012],[-7.236317511999914,57.47626373900006],[-7.202137824999852,57.46263255400011],[-7.2084041009999,57.45644765800016],[-7.222035285999937,57.460923570000105],[-7.244699673999889,57.449652411000116],[-7.263579881999931,57.448960679],[-7.258208787999877,57.43911367400007],[-7.249663865999935,57.43524811400006],[-7.212025519999941,57.43219635600015],[-7.20409094999988,57.425441799000126],[-7.205433722999885,57.41860586100002],[-7.292062954999921,57.404730536000116],[-7.318267381999874,57.40802643400015],[-7.396148240999935,57.43398672100015],[-7.4076228509999,57.44562409100014],[-7.402699347999913,57.46434153900013],[-7.389271613999938,57.47988515800013],[-7.369618292999888,57.48932526200004],[-7.346180792999917,57.489935614],[-7.322132941999882,57.482896226000136],[-7.309803839999915,57.48411692900005],[-7.298410610999952,57.489935614],[-7.292469855999855,57.48529694200009]]],[[[-5.982533331999889,57.49746328300016],[-5.986724412999905,57.48224518400018],[-6.017648891999954,57.418198960000026],[-6.016672329999892,57.3876000020001],[-5.99510657499988,57.363714911000116],[-5.989491339999887,57.34731679900001],[-6.054798956999946,57.326402085000055],[-6.071929490999906,57.33234284100017],[-6.064442511999914,57.34658437700007],[-6.075428839999887,57.35504791900003],[-6.07713782499988,57.371771552000055],[-6.069081183999856,57.43610260600015],[-6.061634894999884,57.45270416900003],[-6.04552161399991,57.46063873900009],[-6.016672329999892,57.46263255400011],[-6.016672329999892,57.469427802000055],[-6.037098761999857,57.489935614],[-6.02586829299986,57.49624258000013],[-6.015858527999882,57.49677155200011],[-5.995594855999855,57.489935614],[-5.995594855999855,57.49746328300016],[-6.009836391999954,57.51105377800012],[-5.987212693999908,57.502875067],[-5.982533331999889,57.49746328300016]]],[[[-5.968006964999859,57.53392161700013],[-5.968251105999883,57.51788971600003],[-5.983713344999899,57.5223656270001],[-5.989979620999861,57.53294505400005],[-5.98729407499988,57.54629140800016],[-5.975697394999884,57.558823960000055],[-5.982533331999889,57.56631094000012],[-5.968658006999902,57.57656484600015],[-5.961903449999852,57.577297268000095],[-5.955189581999917,57.572495835],[-5.968006964999859,57.53392161700013]]],[[[-7.189116990999935,57.65509674700017],[-7.172840949999909,57.649562893000066],[-7.142567511999914,57.65810781500009],[-7.129383917999888,57.65289948100009],[-7.092600063999896,57.65208567900008],[-7.074086066999882,57.646389065],[-7.065052863999881,57.63397858300006],[-7.099191860999952,57.60732656500012],[-7.113107876999948,57.60871002800012],[-7.130767381999874,57.623480536],[-7.171131964999915,57.641424872000144],[-7.215891079999949,57.641424872000144],[-7.215891079999949,57.63397858300006],[-7.197255011999886,57.63125234600001],[-7.196156378999916,57.62718333500014],[-7.202137824999852,57.62091705900009],[-7.202137824999852,57.613470770000035],[-7.173247850999928,57.61465078300013],[-7.164418097999885,57.609930731000034],[-7.161203579999921,57.596380927000084],[-7.154286261999914,57.587347723000065],[-7.13805091099988,57.58698151200004],[-7.106027798999889,57.59296295800006],[-7.125599738999938,57.571112372000115],[-7.149973110999923,57.561712958],[-7.2084041009999,57.558823960000055],[-7.236317511999914,57.55206940300003],[-7.243275519999912,57.55609772300009],[-7.256743943999908,57.572495835],[-7.269886847999942,57.570542710000055],[-7.312082485999895,57.55206940300003],[-7.312082485999895,57.544582424000154],[-7.240061001999948,57.544582424000154],[-7.181304490999878,57.553900458],[-7.144154425999943,57.548529364000146],[-7.137684699999852,57.54511139500012],[-7.133900519999941,57.53839752800009],[-7.157541469999956,57.51105377800012],[-7.219838019999941,57.51080963700015],[-7.236317511999914,57.503607489000146],[-7.252512173999889,57.510321356000176],[-7.287464972999885,57.50877513200014],[-7.305287238999881,57.51105377800012],[-7.318470831999917,57.51703522300012],[-7.338124152999882,57.539740302000084],[-7.346180792999917,57.544582424000154],[-7.318267381999874,57.55206940300003],[-7.351226365999935,57.55369700700005],[-7.411610480999855,57.57514069200009],[-7.442372199999852,57.579291083000115],[-7.455922003999916,57.56842682500003],[-7.47085527299987,57.56720612200003],[-7.499419725999928,57.575018622000115],[-7.544829881999931,57.59296295800006],[-7.544829881999931,57.59979889500009],[-7.522206183999884,57.608384507],[-7.476551886999943,57.66193268400009],[-7.455311652999853,57.655462958],[-7.387115037999934,57.66193268400009],[-7.387115037999934,57.65509674700017],[-7.414418097999913,57.64826080900015],[-7.396555141999954,57.63532135600015],[-7.366851365999906,57.65143463700004],[-7.3353572259999,57.67609284100003],[-7.312082485999895,57.68854401200004],[-7.312082485999895,57.682359117000075],[-7.32286536399991,57.67475006700012],[-7.33250891799986,57.66193268400009],[-7.277902798999918,57.649562893000066],[-7.256743943999908,57.64826080900015],[-7.256743943999908,57.65509674700017],[-7.277251756999874,57.66193268400009],[-7.255970831999889,57.66693756700015],[-7.209055141999926,57.68602122600011],[-7.181711391999954,57.68854401200004],[-7.169178839999859,57.6791852890001],[-7.165394660999937,57.66986725500006],[-7.171538865999906,57.6615257830001],[-7.189116990999935,57.65509674700017]]],[[[-6.310902472999885,57.70282623900012],[-6.293324347999942,57.68602122600011],[-6.260487433999856,57.66864655200014],[-6.23265540299991,57.641424872000144],[-6.18797766799986,57.62091705900009],[-6.168853318999879,57.60761139500006],[-6.153879360999923,57.589544989000146],[-6.14468339799987,57.52000560100005],[-6.133371548999889,57.47626373900006],[-6.146962042999917,57.42511627800009],[-6.15249589799987,57.41754791900014],[-6.178863084999932,57.40355052299999],[-6.18797766799986,57.39435455900012],[-6.159250454999892,57.407375393],[-6.14159094999988,57.41079336100002],[-6.126535610999952,57.40802643400015],[-6.117909308999856,57.39777252800003],[-6.12352454299986,57.38825104400003],[-6.140126105999911,57.373928127000156],[-6.13524329299986,57.357367255000085],[-6.105702277999882,57.33966705900018],[-6.099232550999886,57.33234284100017],[-6.106597459999875,57.323472398000135],[-6.153879360999923,57.30560944200006],[-6.068186001999948,57.31183502800012],[-6.045399542999945,57.308294989000146],[-6.041086391999926,57.30011627800003],[-6.052886522999898,57.29100169500005],[-6.078114386999857,57.28449127800015],[-6.078114386999857,57.27765534100003],[-6.008452928999901,57.28676992400004],[-5.976673956999946,57.27033112200003],[-5.938140428999873,57.2709007830001],[-5.9232478509999,57.26691315300012],[-5.900624152999853,57.242905992000075],[-5.886219855999883,57.242092190000065],[-5.865834113999881,57.257147528000175],[-5.824330206999889,57.25617096600011],[-5.795806443999908,57.271795966000084],[-5.76789303299995,57.27741120000009],[-5.738514777999853,57.27728913000011],[-5.721831834999904,57.26463450700014],[-5.647368943999936,57.26463450700014],[-5.663889126999919,57.239813544000086],[-5.659087693999936,57.22247955900009],[-5.662953253999945,57.21271393400015],[-5.690907355999883,57.18952057500003],[-5.727284308999856,57.172796942],[-5.74233964799987,57.16844310100011],[-5.782053188999896,57.16624583500011],[-5.788970506999874,57.159491278000175],[-5.790760870999861,57.137396552],[-5.800363735999952,57.123724677000055],[-5.85220292899993,57.10297272300015],[-5.918853318999908,57.05011627800009],[-5.934925910999908,57.04120514500015],[-5.953439907999922,57.03412506700009],[-6.006743943999879,57.02838776200012],[-6.020822719999927,57.03188711100002],[-6.030384894999912,57.04490794499999],[-6.027251756999931,57.06216054900001],[-6.000233527999882,57.08392975500006],[-6.003041144999941,57.09955475500014],[-5.994211391999897,57.10455963700018],[-5.986927863999881,57.11823151200012],[-5.961822068999879,57.142157294000086],[-5.94155839799987,57.15477122600008],[-5.845366990999935,57.18146393400009],[-5.845366990999935,57.188299872000115],[-5.900868292999888,57.17552317900008],[-5.986236131999931,57.17462799700017],[-5.991688605999883,57.17719147300009],[-5.995594855999855,57.19574616100009],[-6.01927649599989,57.21759674700003],[-6.03221594999988,57.22650788000006],[-6.044016079999949,57.229925848000065],[-6.035389777999853,57.211493231000034],[-6.023508266999897,57.19574616100009],[-6.040842251999891,57.174139716000084],[-6.050852016999954,57.16844310100011],[-6.044016079999949,57.16103750200001],[-6.056263800999915,57.15289948100009],[-6.073841925999943,57.13178131700009],[-6.088612433999856,57.12742747599999],[-6.101429816999882,57.135199286],[-6.112904425999915,57.188299872000115],[-6.126454230999883,57.19521719],[-6.140126105999911,57.188299872000115],[-6.147450324999909,57.19452545800006],[-6.164458787999877,57.20136139500009],[-6.174305792999917,57.201971747000144],[-6.174305792999917,57.19574616100009],[-6.159820115999963,57.18764883000016],[-6.177154100999928,57.18121979400014],[-6.318348761999886,57.16103750200001],[-6.318348761999886,57.16844310100011],[-6.276722785999908,57.19574616100009],[-6.276722785999908,57.201971747000144],[-6.313099738999881,57.19989655200011],[-6.345611131999874,57.188299872000115],[-6.364735480999855,57.20453522300015],[-6.379790818999936,57.22308991100006],[-6.359486456999946,57.22943756700009],[-6.345611131999874,57.242905992000075],[-6.391428188999953,57.24054596600003],[-6.408192511999886,57.24335358300006],[-6.455474412999934,57.27765534100003],[-6.466053839999887,57.29474518400018],[-6.479156053999873,57.304754950000145],[-6.482167120999861,57.31183502800012],[-6.416411912999877,57.33454010600015],[-6.394032355999855,57.33234284100017],[-6.337635870999918,57.301499742000104],[-6.310902472999885,57.298163153000175],[-6.323882615999878,57.31142812700001],[-6.406158006999931,57.35154857000013],[-6.417632615999906,57.35276927300005],[-6.462961391999897,57.34658437700007],[-6.448638475999928,57.35276927300005],[-6.448638475999928,57.36025625200001],[-6.475941535999908,57.36709219000012],[-6.465809699999852,57.370021877000156],[-6.462961391999897,57.373928127000156],[-6.478871222999913,57.381903387000094],[-6.480824347999885,57.390082098],[-6.475941535999908,57.40119049700006],[-6.490834113999938,57.39899323100015],[-6.510609503999888,57.385565497000144],[-6.523793097999913,57.380764065000065],[-6.517648891999954,57.39887116100009],[-6.521229620999918,57.4078636740001],[-6.530629035999937,57.41547272300012],[-6.538929816999911,57.40232982],[-6.562123175999943,57.39545319200006],[-6.571522589999887,57.3876000020001],[-6.573150193999908,57.37612539300012],[-6.562123175999943,57.35785553600006],[-6.564116990999906,57.34658437700007],[-6.580555792999888,57.33881256700009],[-6.67247473899991,57.35594310100011],[-6.695952928999873,57.36440664300015],[-6.714751756999931,57.376613674000126],[-6.731678839999915,57.416978257],[-6.773182745999918,57.434068101000136],[-6.78384355399993,57.45644765800016],[-6.722401495999861,57.45644765800016],[-6.736317511999857,57.465155341000056],[-6.745228644999884,57.47589752800015],[-6.747141079999921,57.48794179900007],[-6.739735480999855,57.50055573100006],[-6.726307745999861,57.51141998900012],[-6.715931769999941,57.514227606000176],[-6.706450975999871,57.51093170800014],[-6.638091600999871,57.4532738300001],[-6.620025193999936,57.44550202000009],[-6.606800910999908,57.44391510600015],[-6.612538214999887,57.46263255400011],[-6.599476691999911,57.469427802000055],[-6.631255662999962,57.49359772300015],[-6.633046027999853,57.49746328300016],[-6.630604620999918,57.50177643400015],[-6.621408657999922,57.503851630000085],[-6.611439581999946,57.51219310100005],[-6.564116990999906,57.503607489000146],[-6.573963995999918,57.521714585000055],[-6.599354620999947,57.53754303600009],[-6.62987219999988,57.548529364000146],[-6.654774542999917,57.55206940300003],[-6.64159094999988,57.56195709800012],[-6.631011522999898,57.5768089860001],[-6.628895636999914,57.591131903000175],[-6.640451626999919,57.59979889500009],[-6.640451626999919,57.60732656500012],[-6.619781053999901,57.60716380400008],[-6.594309048999918,57.59052155200011],[-6.572255011999914,57.58250560099999],[-6.564116990999906,57.558823960000055],[-6.554595506999902,57.55247630400014],[-6.501210089999859,57.53554922100015],[-6.464914516999954,57.51251862200017],[-6.420765753999973,57.51788971600003],[-6.443470831999917,57.488104559000035],[-6.433501756999931,57.486476955000015],[-6.412098761999886,57.50136953300016],[-6.400257941999911,57.5209821640001],[-6.386952277999882,57.51727936400009],[-6.310902472999885,57.46263255400011],[-6.310902472999885,57.469427802000055],[-6.32518469999988,57.483099677],[-6.324615037999905,57.496812242000104],[-6.338531053999901,57.50946686400009],[-6.372954881999931,57.53156159100017],[-6.389556443999879,57.55247630400014],[-6.385853644999941,57.56264883000007],[-6.372425910999937,57.57257721600017],[-6.35985266799986,57.59296295800006],[-6.383371548999918,57.592922268000066],[-6.400257941999911,57.59979889500009],[-6.395863410999937,57.613470770000035],[-6.414540167999917,57.63397858300006],[-6.415679490999935,57.64581940300003],[-6.41344153599988,57.64923737200003],[-6.35985266799986,57.66811758000007],[-6.337961391999926,57.699164130000085],[-6.32518469999988,57.69599030200011],[-6.314279751999919,57.699164130000085],[-6.310902472999885,57.70282623900012]]],[[[-7.170033331999974,57.715155341000084],[-7.19896399599989,57.70795319200015],[-7.222645636999886,57.709662177000055],[-7.180165167999917,57.73468659100014],[-7.161203579999921,57.73700592700011],[-7.152007615999935,57.726304429000024],[-7.170033331999974,57.715155341000084]]],[[[-8.56895911399991,57.807562567],[-8.590891079999949,57.804754950000145],[-8.61070716099988,57.81273021],[-8.621001756999874,57.83319733300006],[-8.60529537699992,57.82640208500014],[-8.569081183999884,57.823675848000065],[-8.552235480999883,57.81891510600015],[-8.56895911399991,57.807562567]]],[[[-6.997385219999927,57.915106512000094],[-6.997059699999909,57.893540757],[-7.0091853509999,57.88959381700003],[-7.044585740999906,57.90208567900011],[-7.048085089999887,57.89081452000012],[-7.05516516799986,57.88418203300016],[-7.079335089999859,57.880316473000065],[-7.076771613999938,57.890692450000145],[-7.079335089999859,57.89468008000013],[-7.037749803999873,57.91632721600003],[-7.015533006999931,57.92194245000003],[-6.997385219999927,57.915106512000094]]],[[[-6.861154751999948,58.25336334800012],[-6.828928188999896,58.23379140800016],[-6.81859290299991,58.23725006700006],[-6.809641079999977,58.23224518400012],[-6.795765753999888,58.21881745000003],[-6.791249152999939,58.20994700700008],[-6.873280402999853,58.20994700700008],[-6.873280402999853,58.21678294499999],[-6.85960852799991,58.21678294499999],[-6.85960852799991,58.223049221000124],[-6.872222459999904,58.22679271000008],[-6.882313605999855,58.236273505000085],[-6.886219855999855,58.24762604400014],[-6.880034959999875,58.25775788000011],[-6.861154751999948,58.25336334800012]]],[[[-6.195546027999882,58.356268622000115],[-6.167469855999883,58.353949286000145],[-6.167469855999883,58.34650299700017],[-6.233713344999956,58.32282135600015],[-6.249989386999886,58.312974351000136],[-6.244984503999945,58.304144598000065],[-6.246408657999922,58.297552802],[-6.253814256999902,58.29336172100007],[-6.278675910999937,58.288723049000126],[-6.288238084999932,58.274603583000115],[-6.317860480999883,58.268296617000075],[-6.318348761999886,58.244696356000034],[-6.33849036399991,58.237616278000175],[-6.366118943999908,58.23725006700006],[-6.347727016999954,58.22113678600009],[-6.310861782999893,58.21503327],[-6.270904100999957,58.21649811400006],[-6.243234829999949,58.223049221000124],[-6.194813605999855,58.250921942],[-6.161122199999852,58.258978583000115],[-6.15070553299995,58.25836823100015],[-6.160023566999911,58.250921942],[-6.160023566999911,58.244696356000034],[-6.153879360999923,58.244696356000034],[-6.167469855999883,58.23041413000014],[-6.160023566999911,58.21678294499999],[-6.195220506999874,58.206488348000065],[-6.215321417999917,58.189439195000105],[-6.233550584999904,58.18427155200011],[-6.24742591099988,58.18545156500015],[-6.29356848899991,58.19936758000004],[-6.338205532999979,58.19627513200014],[-6.384673631999931,58.20970286700013],[-6.400257941999911,58.20994700700008],[-6.377023891999897,58.173529364],[-6.366118943999908,58.16209544500005],[-6.378041144999941,58.15363190300012],[-6.372954881999931,58.141058661000116],[-6.390695766999926,58.133530992000075],[-6.441232876999919,58.12738678600009],[-6.474720831999889,58.10521067900011],[-6.489654100999928,58.10008372600002],[-6.523793097999913,58.10687897300012],[-6.551096157999893,58.09324778899999],[-6.603179490999935,58.085638739000146],[-6.61937415299991,58.08641185100008],[-6.61937415299991,58.079575914000046],[-6.581288214999915,58.07900625200007],[-6.451324022999898,58.095689195000105],[-6.420643683999884,58.10565827],[-6.407093878999916,58.10687897300012],[-6.394032355999855,58.101792710000026],[-6.383900519999912,58.091782945000105],[-6.378570115999935,58.07904694200006],[-6.379790818999936,58.065985419000086],[-6.366118943999908,58.05853913000011],[-6.381906704999949,58.048895575000145],[-6.400257941999911,58.045477606000034],[-6.377674933999856,58.038763739],[-6.352447068999879,58.03864166900003],[-6.400868292999888,58.007310289000074],[-6.424468553999901,58.00389232000008],[-6.544911261999857,58.01752350500003],[-6.550689256999902,58.01007721600003],[-6.520741339999915,58.00079987200017],[-6.505116339999859,57.992499091000084],[-6.469634568999965,57.98688385600009],[-6.455474412999934,57.97654857],[-6.455474412999934,57.96971263200008],[-6.464995897999927,57.965643622000115],[-6.489654100999928,57.943060614000146],[-6.50755774599989,57.93598053600009],[-6.551096157999893,57.943060614000146],[-6.551096157999893,57.935614325000145],[-6.537464972999942,57.92877838700004],[-6.537464972999942,57.921332098000065],[-6.559803839999887,57.915228583000086],[-6.578439907999893,57.917222398000106],[-6.593861456999917,57.924872137000065],[-6.606353318999908,57.935614325000145],[-6.620472785999937,57.95453522300009],[-6.62987219999988,57.95673248900009],[-6.634999152999882,57.95160553600006],[-6.629628058999941,57.94025299700009],[-6.612538214999887,57.921332098000065],[-6.61937415299991,57.915106512000094],[-6.660959438999896,57.92877838700004],[-6.672434048999918,57.94619375200001],[-6.699818488999881,57.97622304900007],[-6.707753058999856,57.989569403000175],[-6.709380662999877,58.00389232000008],[-6.694650844999899,58.03009674700009],[-6.665842251999948,58.04466380400011],[-6.629465298999975,58.05093008000007],[-6.592030402999853,58.05231354400014],[-6.592030402999853,58.05853913000011],[-6.688303188999953,58.05853913000011],[-6.692697719999927,58.040961005000085],[-6.716053839999915,58.024969794000086],[-6.764027472999913,58.00389232000008],[-6.750884568999879,57.99298737200009],[-6.730091925999886,57.96295807500003],[-6.704741990999935,57.95319245000009],[-6.67398027299987,57.92877838700004],[-6.695668097999942,57.921332098000065],[-6.688954230999911,57.91494375200013],[-6.667795376999891,57.90827057500009],[-6.660959438999896,57.880316473000065],[-6.742909308999913,57.891262111000046],[-6.777658657999979,57.90208567900011],[-6.787017381999902,57.89883047100007],[-6.805572068999908,57.880316473000065],[-6.764027472999913,57.86790599200013],[-6.736683722999942,57.83942291900003],[-6.741932745999861,57.831488348000065],[-6.75560462099989,57.82648346600003],[-6.791249152999939,57.825751044000086],[-6.791249152999939,57.81891510600015],[-6.78384355399993,57.81891510600015],[-6.78384355399993,57.81268952],[-6.806141730999883,57.81464264500006],[-6.852691209999904,57.83319733300006],[-6.85960852799991,57.825751044000086],[-6.839100714999859,57.81268952],[-6.861154751999948,57.796332098],[-6.887521938999953,57.784816799000154],[-6.873280402999853,57.77798086100013],[-6.893950975999871,57.76654694200009],[-6.955148891999897,57.743841864000146],[-6.973500128999945,57.73334381700006],[-7.041371222999942,57.77049388200008],[-7.10187740799995,57.811468817],[-7.112782355999911,57.815863348000065],[-7.124623175999886,57.83075592700011],[-7.125070766999954,57.83690013200011],[-7.096994594999956,57.83803945500013],[-7.088612433999913,57.833400783000016],[-7.079335089999859,57.81268952],[-6.997385219999927,57.85370514500012],[-6.984852667999917,57.864894924000126],[-6.962269660999937,57.86884186400012],[-6.914173956999889,57.86790599200013],[-6.962554490999878,57.88784414300004],[-6.962554490999878,57.89468008000013],[-6.911610480999883,57.91058991100006],[-6.881703253999888,57.91429271],[-6.851877407999893,57.91058991100006],[-6.832264777999853,57.90208567900011],[-6.85960852799991,57.915228583000086],[-6.865834113999881,57.921332098000065],[-6.839100714999859,57.92877838700004],[-6.839100714999859,57.935614325000145],[-6.897084113999938,57.935614325000145],[-6.910796678999873,57.938910223],[-6.937001105999911,57.953436591000056],[-6.952056443999908,57.95673248900009],[-7.009755011999857,57.955267645000035],[-7.036284959999932,57.96063873900006],[-7.044585740999906,57.97654857],[-7.057281053999873,57.970851955000015],[-7.0658259759999,57.97101471600017],[-7.112782355999911,57.99022044500013],[-7.071766730999911,58.01190827],[-7.051909959999904,58.011379299000126],[-7.051909959999904,58.01752350500003],[-7.058216925999943,58.024969794000086],[-6.995228644999912,58.03375885600015],[-6.934641079999949,58.05231354400014],[-7.028716600999871,58.038397528000175],[-7.058216925999943,58.03864166900003],[-7.053618943999908,58.047796942],[-7.045765753999916,58.05263906500009],[-7.024037238999938,58.05231354400014],[-7.024037238999938,58.05853913000011],[-7.051909959999904,58.05853913000011],[-7.035023566999911,58.06635163000003],[-7.024037238999938,58.079575914000046],[-7.067494269999912,58.06273021000014],[-7.075550910999937,58.06224192900005],[-7.112782355999911,58.10008372600002],[-7.107533331999917,58.11200592700014],[-7.121937628999888,58.118597723000036],[-7.126454230999855,58.12396881700006],[-7.123402472999942,58.13666413000014],[-7.112131313999953,58.145453192],[-7.112782355999911,58.15534088700012],[-7.100168423999946,58.15940989800008],[-7.093006964999887,58.168402411],[-7.112782355999911,58.175848700000145],[-7.112782355999911,58.182033596000124],[-7.037709113999881,58.18463776200004],[-7.017201300999943,58.189439195000105],[-7.053944464999944,58.20136139500006],[-7.058216925999943,58.21336497599999],[-7.056060350999928,58.22565338700004],[-7.030873175999886,58.244696356000034],[-6.977284308999884,58.227362372000144],[-6.969471808999884,58.22675202000009],[-6.962025519999912,58.230169989],[-6.907338019999969,58.21678294499999],[-6.907338019999969,58.20994700700008],[-6.937082485999895,58.21100495000003],[-6.930409308999913,58.196844794000114],[-6.897084113999938,58.17210521000014],[-6.898345506999931,58.15672435099999],[-6.888050910999937,58.135891018],[-6.872873501999948,58.11688873900003],[-6.85960852799991,58.10687897300012],[-6.861887173999889,58.12140534100017],[-6.85960852799991,58.134833075000145],[-6.887521938999953,58.168402411],[-6.877512173999946,58.17218659100011],[-6.869496222999913,58.189439195000105],[-6.825062628999916,58.195379950000145],[-6.798451300999943,58.202378648000135],[-6.772572394999941,58.19550202000012],[-6.748524542999917,58.18292877800003],[-6.736683722999942,58.168402411],[-6.709380662999877,58.189439195000105],[-6.742909308999913,58.20311107000005],[-6.757191535999908,58.23041413000014],[-6.78384355399993,58.23041413000014],[-6.791249152999939,58.244696356000034],[-6.811838344999956,58.26459381700012],[-6.791249152999939,58.27138906500015],[-6.801177537999934,58.2833519550001],[-6.81859290299991,58.285101630000085],[-6.736968553999901,58.32363515800016],[-6.715565558999856,58.33966705900015],[-6.703358527999882,58.33588288000011],[-6.681385870999861,58.34650299700017],[-6.647328253999945,58.34650299700017],[-6.620676235999895,58.350734768000095],[-6.557484503999916,58.36855703300007],[-6.523345506999931,58.39077383000013],[-6.345611131999874,58.46320221600017],[-6.296294725999871,58.497259833000086],[-6.267404751999948,58.51203034100017],[-6.243234829999949,58.510972398000106],[-6.223052537999934,58.499212958000115],[-6.205393032999922,58.48126862200009],[-6.192738410999937,58.46206289300012],[-6.18797766799986,58.44611237200003],[-6.169992641999897,58.42999909100014],[-6.166859503999916,58.41950104400017],[-6.184925910999937,58.414780992000075],[-6.192372199999909,58.40912506700009],[-6.215321417999917,58.36762116100009],[-6.206898566999968,58.36115143400018],[-6.195546027999882,58.356268622000115]]],[[[-3.34788977799991,58.65204498900006],[-3.309885219999899,58.64813873900006],[-3.20409094999988,58.66111888200005],[-3.151926235999952,58.64126211100016],[-3.05288652299987,58.64813873900006],[-3.019113735999895,58.64032623900009],[-3.049183722999942,58.58673737200017],[-3.084543423999946,58.551947333000115],[-3.118031378999888,58.53204987200003],[-3.129261847999913,58.51264069200012],[-3.129302537999905,58.496405341000084],[-3.118723110999923,58.484442450000145],[-3.097523566999939,58.47748444200006],[-3.064442511999914,58.48297760600009],[-3.053334113999881,58.46576569200006],[-3.057728644999941,58.456854559000035],[-3.077056443999879,58.44953034100003],[-3.086333787999934,58.414211330000015],[-3.129790818999879,58.3692894550001],[-3.220529751999891,58.30556875200013],[-3.38499915299991,58.26459381700012],[-3.438099738999938,58.236029364000146],[-3.473459438999953,58.19342682500009],[-3.515288865999878,58.168402411],[-3.735015428999901,58.072170315000065],[-3.809193488999938,58.05190664300015],[-3.827504035999908,58.04205963700004],[-3.851714647999898,58.00389232000008],[-3.990956183999884,57.96039459800012],[-4.001942511999857,57.935614325000145],[-4.023060675999943,57.943060614000146],[-4.016184048999946,57.94928620000009],[-4.084380662999877,57.96417877800015],[-4.089100714999887,57.960150458000086],[-4.077626105999911,57.943060614000146],[-4.016184048999946,57.93219635600015],[-3.988270636999914,57.90827057500009],[-4.008941209999932,57.88959381700003],[-4.013824022999898,57.87933991100009],[-4.009348110999923,57.86790599200013],[-4.070220506999931,57.874172268000095],[-4.104969855999911,57.85370514500012],[-4.132923956999917,57.85415273600002],[-4.2181697259999,57.874172268000095],[-4.298898891999926,57.8627790390001],[-4.320952928999901,57.87103913000003],[-4.353179490999963,57.89520905200011],[-4.392404751999891,57.90827057500009],[-4.33958899599989,57.865708726000136],[-4.307728644999884,57.85146719000012],[-4.269398566999939,57.846869208],[-4.208241339999887,57.859198309000064],[-4.149728969999927,57.82982005400005],[-4.133452928999901,57.830145575000174],[-4.139068162999905,57.846869208],[-4.075062628999916,57.82318756700009],[-4.039906378999945,57.818182684000035],[-3.983509894999912,57.84235260600006],[-3.951486782999922,57.83832428600009],[-3.933705206999917,57.8256696640001],[-3.947336391999983,57.81268952],[-3.914784308999913,57.80768463700015],[-3.877674933999913,57.81671784100017],[-3.798451300999943,57.86652252800015],[-3.786040818999908,57.865423895],[-3.779449022999927,57.85565827000006],[-3.79002844999988,57.83071523600013],[-3.988270636999914,57.69599030200011],[-4.02367102799991,57.69782135600009],[-4.028635219999956,57.70770905200003],[-4.016184048999946,57.723334052],[-4.042958136999857,57.73729075700005],[-4.077951626999948,57.73029205900018],[-4.168568488999881,57.68943919500013],[-4.259266730999883,57.67869700700011],[-4.294789191999882,57.68016185099999],[-4.30882727799991,57.654852606000034],[-4.403187628999888,57.60952383000013],[-4.428456183999856,57.57754140800013],[-4.37987219999988,57.5893415390001],[-4.32872473899991,57.62628815300015],[-4.283111131999874,57.641424872000144],[-4.244536912999905,57.66303131700015],[-4.201893683999884,57.674994208000086],[-4.18224036399991,57.67279694200009],[-4.169016079999892,57.66376373900009],[-4.096791144999884,57.65810781500009],[-4.009348110999923,57.68854401200004],[-4.004505988999938,57.67597077000015],[-4.025257941999939,57.65521881700015],[-4.0834041009999,57.62335846600003],[-4.118560350999871,57.59296295800006],[-4.104969855999911,57.579291083000115],[-4.170643683999913,57.570746161],[-4.187489386999914,57.558823960000055],[-4.178089972999885,57.549546617000104],[-4.184925910999908,57.54816315300003],[-4.262603318999908,57.55206940300003],[-4.262603318999908,57.544582424000154],[-4.207997199999852,57.53839752800009],[-4.248931443999879,57.49746328300016],[-4.194813605999911,57.491603908000016],[-4.173898891999954,57.49746328300016],[-4.149322068999936,57.51788971600003],[-4.116200324999909,57.52179596600003],[-4.08299719999988,57.54441966400002],[-4.034982876999891,57.55687083500011],[-4.083851691999882,57.58612702000015],[-3.964344855999855,57.59296295800006],[-3.868275519999884,57.58787669500013],[-3.837473110999895,57.59296295800006],[-3.684803839999944,57.65444570500013],[-3.625152147999927,57.66193268400009],[-3.645619269999912,57.641424872000144],[-3.632476365999935,57.63564687700007],[-3.590972459999932,57.641424872000144],[-3.611561652999882,57.66811758000007],[-3.535755988999938,57.66193268400009],[-3.505441860999952,57.67865631700012],[-3.495961066999939,57.69135163],[-3.501698370999918,57.70282623900012],[-3.491851365999878,57.713120835000055],[-3.46068274599989,57.709662177000055],[-3.409169074999909,57.723334052],[-3.284738735999923,57.72044505400005],[-3.210072394999912,57.693996486000074],[-3.078684048999918,57.669419664000074],[-3.034901495999947,57.66860586100016],[-2.994496222999885,57.67552317900005],[-2.916086391999926,57.70282623900012],[-2.75804602799991,57.70282623900012],[-2.731068488999938,57.68854401200004],[-2.703521287999934,57.694728908000016],[-2.69294186099998,57.68854401200004],[-2.658924933999856,57.69745514500009],[-2.573394334999932,57.68146393400018],[-2.541981574999909,57.682359117000075],[-2.526112433999884,57.66860586100016],[-2.497954881999902,57.682359117000075],[-2.432850714999859,57.66811758000007],[-2.425526495999861,57.67572663000003],[-2.398060675999915,57.66811758000007],[-2.360503709999904,57.682359117000075],[-2.328968878999916,57.674058335],[-2.313384568999908,57.68992747600011],[-2.295643683999913,57.69599030200011],[-2.209950324999852,57.67552317900005],[-2.18407141799986,57.67845286699999],[-2.108143683999913,57.70498281500012],[-1.997670050999886,57.70282623900012],[-1.973500128999888,57.67552317900005],[-1.932484503999945,57.682359117000075],[-1.914214647999898,57.664740302000055],[-1.829457160999908,57.613470770000035],[-1.811390753999888,57.560492255000085],[-1.796009894999941,57.544582424000154],[-1.800038214999915,57.52586497599999],[-1.761138475999928,57.49746328300016],[-1.775380011999914,57.49652741100009],[-1.781239386999857,57.48041413000003],[-1.759348110999923,57.47357819200009],[-1.830148891999954,57.42617422100015],[-1.847482876999919,57.40814850500011],[-1.849964972999942,57.39435455900012],[-1.954497850999871,57.34113190300003],[-1.980295376999891,57.319281317],[-2.04466712099989,57.22650788000006],[-2.068511522999898,57.17462799700017],[-2.074126756999874,57.154201565],[-2.071400519999912,57.135565497000115],[-2.052357550999915,57.12742747599999],[-2.049305792999917,57.11884186400009],[-2.156158006999902,57.020697333],[-2.186919725999871,56.98468659100003],[-2.200103318999936,56.948716539000046],[-2.186268683999941,56.92674388200014],[-2.186390753999916,56.91453685100008],[-2.209706183999913,56.89581940300009],[-2.219878709999961,56.87262604400014],[-2.2689509759999,56.84634023600013],[-2.319813605999911,56.801581122000115],[-2.426421678999873,56.75128815300006],[-2.440744594999927,56.73484935100005],[-2.451649542999917,56.690985419000086],[-2.487456834999932,56.653876044000086],[-2.480620897999898,56.626532294000114],[-2.504058397999898,56.608832098],[-2.514556443999965,56.59149811400012],[-2.623768683999884,56.54340241100006],[-2.640939907999922,56.52236562700004],[-2.699777798999889,56.50364817900005],[-2.727650519999941,56.469549872000144],[-2.737294074999909,56.46702708500011],[-2.764800584999932,56.475734768],[-3.060617641999897,56.45172760600015],[-3.133900519999912,56.426947333],[-3.238189256999902,56.36774323100009],[-3.280181443999879,56.35789622599999],[-3.323475714999859,56.36591217700011],[-3.294016079999977,56.35276927300008],[-3.230620897999927,56.35602448100012],[-2.950266079999921,56.431870835000055],[-2.93065344999988,56.448065497000115],[-2.884999152999939,56.45799388200011],[-2.850087042999917,56.44204336100002],[-2.814768032999893,56.440415757],[-2.802805141999954,56.42796458500008],[-2.800892706999889,56.40892161699999],[-2.808257615999878,56.39105866100003],[-2.837554490999906,56.36591217700011],[-2.812977667999888,56.36591217700011],[-2.802805141999954,56.34540436400009],[-2.775257941999911,56.33942291900014],[-2.768625454999949,56.332342841000084],[-2.677154100999928,56.32843659100011],[-2.576812303999958,56.283921617000104],[-2.576812303999958,56.277777411000116],[-2.630116339999915,56.24852122599999],[-2.648345506999902,56.22870514500009],[-2.720204230999883,56.216294664000046],[-2.806141730999883,56.18838125200001],[-2.892079230999883,56.208889065000065],[-2.964344855999883,56.20563385600012],[-2.982411261999886,56.189113674000126],[-3.035552537999877,56.16791413000006],[-3.091053839999859,56.132269598],[-3.12755286399991,56.12287018400018],[-3.163563605999855,56.06386953300013],[-3.17837480399993,56.058091539000074],[-3.248443162999905,56.05597565300015],[-3.342681443999908,56.02716705900012],[-3.420969204999892,56.024888414000046],[-3.582590298999889,56.05174388200014],[-3.671498175999915,56.05084870000006],[-3.745432094999899,56.072211005],[-3.817005988999938,56.11225006700012],[-3.837473110999895,56.11261627800015],[-3.837473110999895,56.10643138200008],[-3.760853644999941,56.07245514500015],[-3.721424933999856,56.030707098],[-3.686634894999912,56.030707098],[-3.66828365799995,56.01276276200015],[-3.656239386999857,56.010199286000145],[-3.577381964999887,56.017035223000065],[-3.405425584999904,55.98973216399999],[-3.331044074999909,55.994086005000085],[-3.303456183999884,55.977606512000094],[-3.121815558999913,55.96930573100012],[-3.090728318999908,55.948187567],[-3.078236456999917,55.946844794000114],[-3.015695766999897,55.95050690300015],[-2.939930792999917,55.96930573100012],[-2.882883266999926,56.00849030200014],[-2.857980923999889,56.010199286000145],[-2.870961066999882,56.030707098],[-2.823150193999936,56.059759833000086],[-2.802805141999954,56.06484609600001],[-2.635121222999942,56.058050848000065],[-2.615956183999884,56.053168036],[-2.587554490999878,56.030951239000146],[-2.569406704999949,56.02448151200004],[-2.583648240999878,56.00275299700017],[-2.544056769999941,56.00267161699999],[-2.528960740999935,55.99656810100011],[-2.507923956999889,56.010199286000145],[-2.307769334999904,55.93500397300015],[-2.138010219999899,55.91461823100015],[-2.128773566999939,55.889797268],[-2.080189581999889,55.86937083500014],[-2.02285626077952,55.805486299532944],[-2.078498901999893,55.790368347000154],[-2.092038126999853,55.75716624000016],[-2.167537393999879,55.71990753300004],[-2.181179971999882,55.70156239900014],[-2.242829955999923,55.649937643000115],[-2.328044392999885,55.63820709200003],[-2.327320922999888,55.62513295500018],[-2.301224324999907,55.612368877],[-2.296573445999854,55.60172353100002],[-2.281380574999901,55.592060039],[-2.256730915999896,55.549478658000126],[-2.216991739999912,55.50886098299999],[-2.2126509199999,55.49025746700012],[-2.18448726399987,55.465814514],[-2.188673054999924,55.44901967400013],[-2.232132934999925,55.42535186800011],[-2.272233845999921,55.41894399000016],[-2.325150512999898,55.3981183880001],[-2.359463663999918,55.362513326000126],[-2.387937377999947,55.355020243000084],[-2.412742065999907,55.364528707000076],[-2.451912800999935,55.36334014900014],[-2.551544962999913,55.31435089100013],[-2.623065144999941,55.26639516200011],[-2.625700642999959,55.2553364060001],[-2.618517618999903,55.24298573900013],[-2.625493936999902,55.22701772100011],[-2.661357381999949,55.21254832000007],[-2.718924926999904,55.16722808900006],[-2.82248449699992,55.13518870100016],[-2.883100951999893,55.08361562100005],[-2.927697713999919,55.068422750000124],[-2.9537943119999,55.04103424099999],[-2.976997028999904,55.04010406500011],[-3.026063801999925,55.05074941000011],[-3.032962605999927,55.01524770100015],[-3.045933390999949,54.999693095000126],[-3.050291125459182,54.98151137867244],[-3.135406053999873,54.96808502800012],[-3.453846808999884,54.98175690300015],[-3.501047329999949,54.99249909100017],[-3.515288865999878,54.98920319200012],[-3.509185350999871,54.98175690300015],[-3.526031053999873,54.977118231000034],[-3.570546027999882,54.99542877800009],[-3.583607550999943,54.96808502800012],[-3.575672980999883,54.95734284100011],[-3.568755662999905,54.91600169500008],[-3.570546027999882,54.899807033000016],[-3.581695115999906,54.88361237200017],[-3.598378058999856,54.87799713700015],[-3.717640753999945,54.880845445000105],[-3.739247199999852,54.85980866100009],[-3.810129360999923,54.86627838700018],[-3.80333411399991,54.85887278900002],[-3.812367316999911,54.855169989000146],[-3.831288214999944,54.86627838700018],[-3.819976365999935,54.878566799000126],[-3.810129360999923,54.87250397300012],[-3.816965298999946,54.886175848000065],[-3.844309048999918,54.86627838700018],[-3.837473110999895,54.85199616100009],[-3.857899542999888,54.844549872000115],[-3.823841925999943,54.82469310100011],[-3.885731574999852,54.80646393400012],[-3.964182094999984,54.771918036000116],[-4.011708136999886,54.768215236000074],[-4.042876756999874,54.769476630000085],[-4.042876756999874,54.77692291900014],[-4.055775519999884,54.78253815300015],[-4.047718878999945,54.81305573100009],[-4.049956834999932,54.82322825700014],[-4.064035610999952,54.83152903900013],[-4.090077277999853,54.80975983300006],[-4.093495245999861,54.79266998900012],[-4.083851691999882,54.77692291900014],[-4.122954881999931,54.77301666900014],[-4.173939581999946,54.79230377800009],[-4.209136522999898,54.826239325000145],[-4.20055091099988,54.86627838700018],[-4.239735480999911,54.84300364800008],[-4.270741339999944,54.839422919000086],[-4.356922980999883,54.86554596600014],[-4.386789516999983,54.90477122600008],[-4.402902798999946,54.90729401200018],[-4.416818813999924,54.89280833500014],[-4.426503058999884,54.86945221600014],[-4.417225714999944,54.845933335],[-4.402902798999946,54.82469310100011],[-4.359608527999882,54.81663646000008],[-4.347645636999857,54.80731842700011],[-4.344471808999884,54.794501044000086],[-4.358143683999913,54.77098216400013],[-4.343861456999917,54.75641510600009],[-4.356516079999892,54.74188873900006],[-4.348133917999917,54.701971747000115],[-4.382394985999895,54.68008047100007],[-4.426503058999884,54.68756745000003],[-4.461171027999882,54.701239325000174],[-4.49673417899993,54.700628973000036],[-4.563628709999961,54.75641510600009],[-4.596669074999909,54.77529531500012],[-4.714466925999943,54.81785716399999],[-4.781076626999919,54.83307526200015],[-4.799631313999924,54.86127350500014],[-4.859120245999861,54.86627838700018],[-4.925770636999857,54.837388414000074],[-4.954823370999918,54.80475495000012],[-4.94790605399993,54.77732982000008],[-4.930165167999917,54.76264069200006],[-4.895985480999855,54.704535223],[-4.867258266999897,54.69013092700014],[-4.87205969999988,54.649237372000115],[-4.859120245999861,54.63296133000007],[-4.944081183999913,54.652777411],[-4.959868943999936,54.67552317900011],[-4.958973761999857,54.69196198100012],[-4.947255011999886,54.701239325000174],[-4.958892381999874,54.71405670800003],[-4.954701300999943,54.72850169500008],[-4.988189256999902,54.735296942],[-5.003285285999908,54.77130768400015],[-5.033192511999886,54.782416083],[-5.128244594999899,54.84894440300009],[-5.157134568999908,54.879095770000035],[-5.175526495999861,54.91461823100009],[-5.180653449999852,54.954413153000175],[-5.170806443999936,55.00869375200004],[-5.156727667999888,55.016546942],[-5.124582485999923,55.01679108300014],[-5.115142381999931,55.03156159100003],[-5.069488084999875,54.98602936400006],[-5.060861782999893,54.931138414000074],[-5.03099524599989,54.91132233300006],[-5.013091600999928,54.90961334800015],[-4.995594855999883,54.92031484600007],[-4.988189256999902,54.93455638200008],[-5.024077928999901,54.97638580900009],[-5.05028235599994,55.02680084800012],[-5.047596808999856,55.05573151200004],[-5.018950975999871,55.102240302000084],[-5.007801886999857,55.14118073100015],[-4.947255011999886,55.167914130000085],[-4.882394985999895,55.21857330900015],[-4.867258266999897,55.222479559000064],[-4.864816860999952,55.241359768000066],[-4.838002081999946,55.284002997000115],[-4.839751756999959,55.315578518],[-4.832508917999917,55.331122137000094],[-4.773101365999878,55.369370835000055],[-4.749256964999887,55.41376373900009],[-4.717030402999853,55.430487372000115],[-4.650502081999946,55.44847239800005],[-4.626332160999937,55.468410549000126],[-4.61778723899991,55.495591539000046],[-4.626779751999948,55.51972077000006],[-4.650786912999877,55.53705475500014],[-4.687163865999878,55.54413483300003],[-4.66624915299991,55.56220123900012],[-4.671131964999887,55.58441803600009],[-4.69273841099988,55.60521067900008],[-4.721994594999899,55.61920807500003],[-4.818104620999861,55.63719310100008],[-4.810617641999897,55.65399811400009],[-4.8685603509999,55.67560455900018],[-4.920521613999966,55.70856354400014],[-4.87633216099988,55.73525625200007],[-4.861073370999918,55.75674062700001],[-4.865305141999926,55.790472723],[-4.882720506999902,55.82135651200015],[-4.892648891999897,55.892889716000084],[-4.886463995999861,55.919663804000024],[-4.872141079999949,55.937201239000146],[-4.849354620999918,55.948228257],[-4.799387173999889,55.957912502000156],[-4.672515428999873,55.93378327000012],[-4.505970831999889,55.91909414300012],[-4.481678839999915,55.92829010600009],[-4.630034959999875,55.94627513200014],[-4.673451300999943,55.96185944200012],[-4.724517381999931,55.998358466000084],[-4.765044725999928,56.00706614800008],[-4.783436652999882,56.01764557500003],[-4.810617641999897,56.04376862200017],[-4.824330206999917,56.078517971000124],[-4.839182094999899,56.08063385600015],[-4.844309048999889,56.072984117000104],[-4.837554490999878,56.05060455900009],[-4.790150519999941,56.010199286000145],[-4.778920050999915,55.99209219000012],[-4.78530839799987,55.98403554900001],[-4.803618943999908,55.982082424000154],[-4.851551886999914,55.988023179],[-4.862294074999852,56.002142645000035],[-4.865386522999927,56.06671784100017],[-4.82632402299987,56.12421295800006],[-4.755441860999952,56.18838125200001],[-4.750884568999908,56.202704169000086],[-4.755523240999935,56.2065290390001],[-4.779937303999901,56.19147370000009],[-4.851673956999889,56.11261627800015],[-4.873117641999926,56.112005927],[-4.88060462099989,56.119859117000075],[-4.878977016999954,56.15053945500007],[-4.893544074999909,56.17426178600009],[-4.907093878999973,56.17706940300003],[-4.920521613999966,56.16791413000006],[-4.895253058999913,56.114732164000074],[-4.886219855999911,56.08038971600011],[-4.889149542999917,56.06484609600001],[-4.901926235999952,56.06191640800007],[-4.904367641999897,56.054348049000126],[-4.892648891999897,55.98973216399999],[-4.906402147999927,55.985744533000016],[-4.954701300999943,55.99656810100011],[-4.954701300999943,55.98973216399999],[-4.91844641799986,55.973334052000084],[-4.913685675999943,55.96185944200012],[-4.9173884759999,55.94745514500006],[-4.947255011999886,55.92084381700012],[-4.968983527999853,55.87986888200011],[-4.994740363999881,55.86981842700014],[-5.02635657499988,55.87372467700014],[-5.042469855999855,55.88475169499999],[-5.056752081999917,55.91030508000007],[-5.070790167999888,55.95868561400006],[-5.110829230999911,55.988959052000055],[-5.123605923999946,56.009914455000015],[-5.139637824999852,56.00275299700017],[-5.085682745999947,55.93187083500008],[-5.078236456999946,55.910956122000115],[-5.086537238999938,55.901271877000156],[-5.171538865999878,55.93553294500013],[-5.180653449999852,55.94843170800014],[-5.180653449999852,55.96930573100012],[-5.199615037999877,55.94855377800012],[-5.212635870999861,55.917141018000095],[-5.242054816999939,55.892889716000084],[-5.21812903599988,55.86469147300012],[-5.201079881999931,55.831488348],[-5.219390428999901,55.831447658000016],[-5.296701626999891,55.852687893],[-5.307118292999888,55.86041901200012],[-5.313384568999936,55.88544342700011],[-5.338286912999877,55.90375397300009],[-5.338286912999877,55.931382554],[-5.32396399599989,55.95868561400006],[-5.338286912999877,55.99656810100011],[-5.313628709999875,56.01235586100013],[-5.204497850999928,56.11945221600017],[-5.146473761999886,56.13312409100011],[-5.104603644999941,56.15151601800015],[-5.043446417999917,56.216294664000046],[-4.94009355399993,56.25141022300012],[-4.920521613999966,56.277777411000116],[-4.975087042999917,56.24799225500011],[-5.049549933999913,56.23704661700005],[-5.064564581999917,56.22931549700006],[-5.108876105999883,56.17470937700007],[-5.228138800999886,56.12921784100011],[-5.310943162999905,56.058050848000065],[-5.345692511999857,56.05121491100006],[-5.356353318999908,56.01976146000014],[-5.368641730999855,56.009426174000126],[-5.433827277999882,56.010199286000145],[-5.437123175999915,56.030015367000075],[-5.444406704999921,56.02757396000011],[-5.454986131999874,55.955633856000176],[-5.430775519999884,55.948187567],[-5.412505662999905,55.89960358300014],[-5.400380011999914,55.892889716000084],[-5.407215949999937,55.87986888200011],[-5.39289303299995,55.87372467700014],[-5.407215949999937,55.86627838700015],[-5.351796027999853,55.832424221000096],[-5.326771613999938,55.808579820000105],[-5.317779100999928,55.78302643400012],[-5.324574347999942,55.76923248900012],[-5.387562628999888,55.750311591000084],[-5.433461066999939,55.72101471600017],[-5.461171027999853,55.688137111000074],[-5.468617316999911,55.65399811400009],[-5.490101691999939,55.644598700000145],[-5.482289191999939,55.632879950000174],[-5.483876105999883,55.610052802000055],[-5.46263587099989,55.60203685100011],[-5.454986131999874,55.59194570500013],[-5.46108964799987,55.578802802],[-5.48875891799986,55.56907786700013],[-5.482289191999939,55.55027903899999],[-5.509632941999911,55.51679108300014],[-5.510975714999915,55.48444245000003],[-5.523264126999976,55.48265208500014],[-5.561512824999909,55.43553294500005],[-5.584624803999873,55.42743561400012],[-5.584624803999873,55.42121002800015],[-5.562082485999895,55.41986725500006],[-5.543690558999856,55.406927802000055],[-5.526682094999984,55.38027578300013],[-5.514963344999899,55.37368398600016],[-5.525054490999963,55.358628648000135],[-5.574370897999927,55.32200755400011],[-5.616281704999949,55.306586005000085],[-5.639963344999956,55.303900458],[-5.680897589999887,55.31134674700017],[-5.714019334999932,55.29913971600011],[-5.75454667899993,55.29734935100011],[-5.772287563999924,55.30125560100011],[-5.782866990999906,55.31354401200015],[-5.794667120999861,55.35639069200006],[-5.791411912999905,55.39862702000009],[-5.76341712099989,55.412054755000085],[-5.715646938999953,55.447902736000074],[-5.721913214999887,55.513861395000035],[-5.707753058999884,55.543361721000096],[-5.721831834999904,55.56460195500007],[-5.673329230999855,55.64061107],[-5.669422980999855,55.660711981000034],[-5.680897589999887,55.67446523600013],[-5.626535610999952,55.70062897300009],[-5.613189256999874,55.725775458000086],[-5.581206834999875,55.75763580900009],[-5.504628058999884,55.78937409100014],[-5.473500128999888,55.81565989800008],[-5.454986131999874,55.84577057500009],[-5.55174719999988,55.78363678600009],[-5.599436001999948,55.764227606000176],[-5.612619594999899,55.76386139500006],[-5.605783657999979,55.776841539000046],[-5.64671790299991,55.787502346000096],[-5.660389777999853,55.79734935100011],[-5.674061652999882,55.84577057500009],[-5.631988084999904,55.88178131700006],[-5.619374152999939,55.90314362200003],[-5.571034308999913,55.93451569200006],[-5.671701626999919,55.88690827000009],[-5.68797766799986,55.89337799700009],[-5.696400519999912,55.91596100500006],[-5.586822068999879,56.01203034100003],[-5.578439907999893,56.02448151200004],[-5.58267167899993,56.02895742400001],[-5.571034308999913,56.037543036000116],[-5.583892381999931,56.04071686400009],[-5.625599738999881,56.02448151200004],[-5.631703253999888,56.00592682500003],[-5.674875454999892,55.97772858300006],[-5.674061652999882,55.955633856000176],[-5.690785285999908,55.93764883000013],[-5.704497850999928,55.93675364800005],[-5.707508917999917,55.942572333],[-5.696441209999904,55.98216380400014],[-5.659901495999861,56.023260809000035],[-5.584624803999873,56.08466217700011],[-5.577463344999927,56.09699127800015],[-5.531605597999942,56.086330471000124],[-5.534738735999923,56.09853750200001],[-5.550526495999861,56.10643138200008],[-5.558705206999974,56.13080475500014],[-5.522531704999949,56.16575755400005],[-5.509632941999911,56.18838125200001],[-5.539906378999916,56.18341705900015],[-5.605783657999979,56.13996002800012],[-5.58641516799986,56.18113841399999],[-5.550526495999861,56.216294664000046],[-5.559437628999888,56.22955963700018],[-5.547230597999913,56.24017975500011],[-5.494740363999881,56.253119208000115],[-5.492827928999901,56.26040273600013],[-5.512684699999909,56.270941473],[-5.592152472999913,56.24982330900009],[-5.598052537999877,56.258612372000144],[-5.595570441999939,56.269924221000124],[-5.57258053299995,56.32807038],[-5.543690558999856,56.35285065300015],[-5.525217251999919,56.346625067],[-5.49819902299987,56.348334052],[-5.448109503999945,56.35968659100017],[-5.448109503999945,56.36591217700011],[-5.51537024599989,56.35683828300013],[-5.537505662999877,56.35968659100017],[-5.509632941999911,56.400620835],[-5.478016730999855,56.412909247000144],[-5.482289191999939,56.42112864800005],[-5.457020636999914,56.44086334800009],[-5.423573370999861,56.450018622000144],[-5.322865363999938,56.45498281500004],[-5.242054816999939,56.44220612200017],[-5.208729620999861,56.446844794000086],[-5.181874152999882,56.45966217700014],[-5.118519660999937,56.50775788],[-5.085682745999947,56.54877350500011],[-5.064564581999917,56.56513092700011],[-5.086537238999938,56.558498440000065],[-5.125965949999909,56.510484117000075],[-5.166900193999936,56.49005768400009],[-5.201079881999931,56.46210358300006],[-5.243763800999943,56.45921458500014],[-5.350168423999918,56.47296784100014],[-5.378081834999875,56.45897044499999],[-5.394276495999918,56.465480861000074],[-5.410552537999962,56.50364817900005],[-5.435943162999877,56.49115631700015],[-5.454986131999874,56.469549872000144],[-5.468617316999911,56.475734768],[-5.427642381999902,56.53782786700005],[-5.403797980999911,56.524603583],[-5.356678839999915,56.51968008000013],[-5.265044725999928,56.551214911000145],[-5.242054816999939,56.56513092700011],[-5.275624152999882,56.5536156270001],[-5.310943162999905,56.55206940300015],[-5.37242591099988,56.53034088700018],[-5.413929816999882,56.54466380400005],[-5.36070716099988,56.606268622000115],[-5.310861782999922,56.63361237200017],[-5.298451300999886,56.64642975500011],[-5.317779100999928,56.653876044000086],[-5.317779100999928,56.66132233300006],[-5.286773240999906,56.674994208],[-5.248199022999927,56.67405833500011],[-5.218902147999898,56.68866608300014],[-5.15330969999988,56.68121979400014],[-5.093373175999943,56.699042059000035],[-4.995594855999883,56.71596914300004],[-5.160552537999905,56.69586823100015],[-5.238270636999914,56.71662018400015],[-5.228423631999902,56.73647695500007],[-5.154652472999885,56.78229401200015],[-5.119740363999938,56.81842682500012],[-5.179066535999937,56.78925202000006],[-5.202259894999941,56.76911041900003],[-5.233469204999921,56.76068756700006],[-5.242054816999939,56.73647695500007],[-5.268462693999936,56.71308014500009],[-5.309803839999887,56.706488348],[-5.319162563999896,56.697495835],[-5.34015865799995,56.69306061400012],[-5.38805091099988,56.65521881700009],[-5.434396938999924,56.64288971600003],[-5.448719855999911,56.62457916900017],[-5.482574022999898,56.61326732],[-5.599598761999914,56.52903880400008],[-5.674061652999882,56.496893622000115],[-5.694691535999908,56.51386139500009],[-5.74083411399991,56.52326080900012],[-5.770253058999913,56.53782786700005],[-5.755197719999899,56.55402252800009],[-5.749134894999912,56.571966864000146],[-5.756662563999953,56.571966864000146],[-5.793853318999936,56.543280341000084],[-5.854359503999945,56.55048248900012],[-6.003407355999855,56.61871979400003],[-6.009836391999954,56.626532294000114],[-6.008168097999942,56.64227936400006],[-5.983509894999941,56.652818101000136],[-5.933583136999914,56.654730536],[-5.866851365999963,56.64154694200015],[-5.839182094999956,56.626532294000114],[-5.831695115999906,56.633978583],[-5.865589972999942,56.65143463700015],[-5.865834113999881,56.66132233300006],[-5.759999152999882,56.70075104400006],[-5.735503709999961,56.702337958000086],[-5.647368943999936,56.68121979400014],[-5.594146287999877,56.68333567900008],[-5.543690558999856,56.69546133000016],[-5.636545376999948,56.68866608300014],[-5.749989386999914,56.714544989000146],[-5.896799282999922,56.675116278000175],[-5.955555792999917,56.68866608300014],[-6.024891730999883,56.68569570500004],[-6.098622199999909,56.69696686400012],[-6.123850063999896,56.69562409100003],[-6.161732550999915,56.67820872600005],[-6.20962480399993,56.688462632],[-6.232533331999917,56.7065290390001],[-6.234486456999889,56.72858307500009],[-6.215321417999917,56.72964101800015],[-6.180531378999945,56.754624742000075],[-6.026966925999915,56.763739325000145],[-5.965199347999885,56.78485748900009],[-5.85220292899993,56.74697500200013],[-5.858143683999884,56.76845937700007],[-5.886341925999943,56.77741120000009],[-5.886341925999943,56.78485748900009],[-5.861805792999917,56.78510163000011],[-5.839182094999956,56.77741120000009],[-5.824615037999934,56.78758372600005],[-5.802072719999956,56.791815497000144],[-5.756662563999953,56.78485748900009],[-5.831695115999906,56.80536530200011],[-5.850819464999859,56.81801992400001],[-5.851185675999886,56.82892487200017],[-5.837473110999952,56.836615302],[-5.73387610599994,56.844794012000094],[-5.692738410999937,56.854925848000065],[-5.660389777999853,56.872992255000085],[-5.69200598899991,56.87531159100014],[-5.708485480999911,56.87055084800015],[-5.724354620999918,56.85382721600011],[-5.744496222999885,56.85415273600013],[-5.783924933999856,56.85993073100009],[-5.735503709999961,56.894110419000086],[-5.780588344999927,56.89874909100003],[-5.874867316999911,56.887152411],[-5.921131964999887,56.894110419000086],[-5.85220292899993,56.90033600500006],[-5.85220292899993,56.907700914000046],[-5.880116339999887,56.92202383000013],[-5.862538214999859,56.933742580000015],[-5.831695115999906,56.997137762000065],[-5.786040818999965,57.02057526200012],[-5.75523841099988,57.02655670800014],[-5.729318813999896,57.02383047100007],[-5.688303188999981,56.989691473000065],[-5.658558722999942,56.97947825700014],[-5.625599738999881,56.97662995000009],[-5.523264126999976,56.997137762000065],[-5.523264126999976,57.003973700000145],[-5.571278449999852,56.99331289300012],[-5.584624803999873,56.997137762000065],[-5.607085740999878,56.98851146000014],[-5.628814256999931,56.99188873900006],[-5.685536261999914,57.00958893400015],[-5.680043097999885,57.036200262000094],[-5.701975063999924,57.04490794499999],[-5.74233964799987,57.03807200700008],[-5.791127081999889,57.059271552000084],[-5.715646938999953,57.120062567],[-5.673695441999939,57.11904531500012],[-5.645863410999908,57.129461981000034],[-5.558257615999878,57.100409247000144],[-5.459828253999945,57.09979889500009],[-5.447417772999927,57.11017487200009],[-5.400380011999914,57.10639069200006],[-5.400380011999914,57.113836981000034],[-5.420033331999946,57.12067291900014],[-5.540638800999943,57.10639069200006],[-5.584624803999873,57.13369375200013],[-5.668446417999888,57.147650458000115],[-5.680897589999887,57.157904364000146],[-5.673817511999914,57.174994208],[-5.625599738999881,57.21625397300012],[-5.644154425999886,57.233221747000115],[-5.620106574999852,57.25214264500012],[-5.578236456999946,57.26675039300015],[-5.543690558999856,57.2709007830001],[-5.44627844999988,57.22304922100007],[-5.407215949999937,57.229925848000065],[-5.407215949999937,57.23672109600001],[-5.458119269999941,57.24664948100009],[-5.501942511999914,57.27765534100003],[-5.464833136999886,57.30662669500013],[-5.440663214999887,57.31183502800012],[-5.440663214999887,57.319281317],[-5.46499589799987,57.32493724199999],[-5.506174282999922,57.298163153000175],[-5.578439907999893,57.27765534100003],[-5.656971808999913,57.29132721600017],[-5.720570441999911,57.28449127800015],[-5.729318813999896,57.298163153000175],[-5.701975063999924,57.33234284100017],[-5.654367641999926,57.35394928600009],[-5.636545376999948,57.33978913000006],[-5.613189256999874,57.34198639500015],[-5.501291469999956,57.37099844000012],[-5.456654425999886,57.39354075700011],[-5.448109503999945,57.42169830900009],[-5.465077277999853,57.42389557500009],[-5.537505662999877,57.373928127000156],[-5.56346594999988,57.36310455900015],[-5.639963344999956,57.373928127000156],[-5.607085740999878,57.389105536000145],[-5.619618292999888,57.416693427000055],[-5.707183397999898,57.359767971000124],[-5.7845759759999,57.34857819200012],[-5.807769334999932,57.35492584800015],[-5.824859178999873,57.39435455900012],[-5.81118730399993,57.40119049700006],[-5.824859178999873,57.41547272300012],[-5.825266079999892,57.428900458000115],[-5.81118730399993,57.442206122000144],[-5.859038865999878,57.45270416900003],[-5.872670050999915,57.49371979400003],[-5.85220292899993,57.524115302],[-5.847075975999928,57.55890534100014],[-5.831695115999906,57.558823960000055],[-5.839182094999956,57.579291083000115],[-5.803618943999879,57.58136627800006],[-5.732574022999927,57.54523346600011],[-5.715646938999953,57.53839752800009],[-5.707020636999857,57.542303778000175],[-5.689768032999922,57.52789948100012],[-5.639963344999956,57.51105377800012],[-5.653553839999915,57.53156159100017],[-5.581532355999883,57.53839752800009],[-5.516835089999859,57.534857489],[-5.512684699999909,57.54148997600008],[-5.54312089799987,57.555365302000055],[-5.588368292999917,57.56102122600005],[-5.632720506999931,57.55768463700012],[-5.660389777999853,57.544582424000154],[-5.694488084999932,57.56631094000012],[-5.680897589999887,57.579291083000115],[-5.71422278599988,57.58270905200014],[-5.762806769999941,57.63397858300006],[-5.805897589999859,57.642645575000145],[-5.81118730399993,57.65509674700017],[-5.805409308999884,57.667181708000086],[-5.785023566999882,57.679510809000035],[-5.790760870999861,57.69599030200011],[-5.734486456999889,57.70795319200015],[-5.704986131999902,57.690130927000084],[-5.692494269999912,57.691066799000154],[-5.674061652999882,57.709662177000055],[-5.720529751999919,57.73338450700005],[-5.803822394999941,57.743841864000146],[-5.801258917999945,57.800441799000126],[-5.809925910999937,57.82062409100017],[-5.807362433999913,57.84393952000009],[-5.78954016799986,57.862005927],[-5.751128709999932,57.87335846600017],[-5.724761522999927,57.873521226000136],[-5.674061652999882,57.86050039300015],[-5.674794074999909,57.82709381700009],[-5.660389777999853,57.79222239800005],[-5.637359178999873,57.774237372000115],[-5.605783657999979,57.77049388200008],[-5.625599738999881,57.79222239800005],[-5.584624803999873,57.784816799000154],[-5.591175910999937,57.80442942900011],[-5.585275844999927,57.83144765800007],[-5.598988410999937,57.846869208],[-5.650380011999857,57.877752997000144],[-5.639963344999956,57.88784414300004],[-5.653553839999915,57.89468008000013],[-5.612619594999899,57.92877838700004],[-5.587310350999957,57.915106512000094],[-5.550526495999861,57.915106512000094],[-5.556263800999943,57.88776276200004],[-5.527902798999889,57.86758047100001],[-5.487049933999856,57.85586172100004],[-5.454986131999874,57.85370514500012],[-5.461171027999853,57.86050039300015],[-5.449045376999948,57.86912669500005],[-5.437123175999915,57.89765045800014],[-5.427642381999902,57.90827057500009],[-5.414906378999945,57.90814850500011],[-5.369496222999942,57.89752838700018],[-5.32750403599988,57.873277085],[-5.293853318999879,57.86204661699999],[-5.221587693999879,57.846869208],[-5.247547980999883,57.867010809000035],[-5.276763475999928,57.874172268000095],[-5.320668097999942,57.898504950000145],[-5.39289303299995,57.91819896],[-5.397328253999916,57.928900458000115],[-5.39289303299995,57.935614325000145],[-5.37173417899993,57.931057033000016],[-5.366200324999909,57.943060614000146],[-5.347157355999911,57.93671295800003],[-5.319162563999896,57.914740302],[-5.29735266799986,57.90827057500009],[-5.256255662999877,57.915106512000094],[-5.198801235999952,57.89777252800012],[-5.162261522999927,57.878485419000086],[-5.119984503999888,57.867987372000115],[-5.091135219999956,57.84031810100011],[-5.070790167999888,57.83319733300006],[-5.097157355999883,57.870917059000035],[-5.197255011999914,57.917873440000065],[-5.221587693999879,57.921332098000065],[-5.221587693999879,57.92877838700004],[-5.201893683999856,57.92865631700006],[-5.193959113999881,57.93598053600009],[-5.204497850999928,57.960150458000086],[-5.292632615999935,57.98061758000013],[-5.333892381999902,58.00853099199999],[-5.359364386999914,58.011379299000126],[-5.351918097999913,58.01752350500003],[-5.366932745999861,58.02887604400017],[-5.427642381999902,58.03119538000014],[-5.413929816999882,58.05231354400014],[-5.447010870999918,58.084377346000124],[-5.428089972999885,58.097967841000084],[-5.3900447259999,58.092189846000124],[-5.366200324999909,58.065985419000086],[-5.344309048999889,58.07550690300009],[-5.300770636999857,58.070135809000035],[-5.276763475999928,58.08641185100008],[-5.283070441999939,58.08641185100008],[-5.278797980999855,58.105373440000065],[-5.290516730999855,58.120550848000065],[-5.276763475999928,58.120550848000065],[-5.276763475999928,58.12738678600009],[-5.29735266799986,58.134833075000145],[-5.242054816999939,58.14789459800012],[-5.242054816999939,58.15534088700012],[-5.290842251999948,58.15631745000009],[-5.304798956999917,58.16209544500005],[-5.29735266799986,58.168402411],[-5.304798956999917,58.173325914000046],[-5.331450975999871,58.182033596000124],[-5.32396399599989,58.20311107000005],[-5.346791144999912,58.20685455900009],[-5.39289303299995,58.244696356000034],[-5.39207923099994,58.26137929900007],[-5.375884568999879,58.26422760600012],[-5.293853318999879,58.24091217700011],[-5.216053839999859,58.26141998900006],[-5.17320716099988,58.250921942],[-5.129383917999917,58.27138906500015],[-5.067697719999899,58.250921942],[-5.002430792999917,58.250921942],[-4.933583136999857,58.223049221000124],[-4.943430141999954,58.233587958],[-4.982004360999923,58.250921942],[-4.926747199999909,58.26459381700012],[-5.00991777299987,58.27138906500015],[-5.029367641999954,58.25971100500006],[-5.050119594999956,58.259914455000015],[-5.096424933999856,58.276760158000016],[-5.136219855999855,58.30556875200013],[-5.160145636999914,58.32660553600009],[-5.17320716099988,58.353949286000145],[-5.15330969999988,58.353949286000145],[-5.163400844999956,58.36456940300009],[-5.162912563999953,58.37449778900002],[-5.146473761999886,58.39496491100006],[-5.14305579299986,58.414780992000075],[-5.057972785999937,58.387274481000034],[-5.016184048999918,58.38812897300012],[-5.053374803999901,58.40664297100015],[-5.05028235599994,58.414780992000075],[-5.057036912999877,58.42218659100014],[-5.076161261999857,58.414496161000145],[-5.098052537999877,58.414780992000075],[-5.098052537999877,58.42218659100014],[-5.085031704999892,58.42218659100014],[-5.085031704999892,58.429022528000175],[-5.105539516999926,58.43650950700014],[-5.050119594999956,58.45380280200014],[-4.995594855999883,58.43650950700014],[-5.105539516999926,58.48737213700015],[-5.105620897999927,58.50556061400006],[-5.095855272999898,58.518866278000175],[-5.027984178999901,58.54409414300015],[-5.016184048999918,58.559393622000115],[-5.022938605999855,58.559393622000115],[-5.004953579999921,58.61774323100009],[-4.988189256999902,58.62832265800016],[-4.859486456999889,58.61322663000014],[-4.835926886999857,58.60504791900006],[-4.818104620999861,58.59292226800015],[-4.803822394999884,58.559393622000115],[-4.807240363999881,58.539618231000176],[-4.818104620999861,58.52464427300005],[-4.791818813999953,58.54165273600002],[-4.785755988999938,58.57705312700001],[-4.771595831999917,58.590399481000034],[-4.776519334999875,58.60716380400005],[-4.728016730999911,58.57746002800003],[-4.660023566999939,58.555853583000115],[-4.667307094999956,58.53204987200003],[-4.714466925999943,58.50560130400005],[-4.760975714999887,58.44798411699999],[-4.742421027999882,58.44953034100003],[-4.673451300999943,58.48737213700015],[-4.666859503999945,58.50291575700008],[-4.612131313999924,58.52464427300005],[-4.584950324999909,58.57416413],[-4.560536261999886,58.57990143400015],[-4.517486131999931,58.575506903000175],[-4.426503058999884,58.5463727890001],[-4.426503058999884,58.52464427300005],[-4.449940558999856,58.510199286],[-4.495350714999859,58.44953034100003],[-4.461171027999882,58.46246979400003],[-4.433908657999979,58.483628648000135],[-4.434234178999901,58.49628327],[-4.382394985999895,58.52464427300005],[-4.317005988999938,58.54572174700017],[-4.287180141999926,58.54291413000011],[-4.257313605999855,58.527980861000074],[-4.234730597999885,58.52464427300005],[-4.248931443999879,58.53204987200003],[-4.22101803299995,58.551947333000115],[-4.176991339999915,58.5463727890001],[-4.149322068999936,58.56561920800006],[-4.081450975999928,58.56183502800003],[-4.061512824999852,58.57282135600009],[-4.048817511999886,58.58958567900011],[-4.029042120999861,58.59516022300012],[-4.003773566999911,58.57062409100011],[-3.895741339999915,58.56561920800006],[-3.810129360999923,58.57306549700006],[-3.698353644999912,58.611151434000035],[-3.597564256999931,58.62714264500012],[-3.542591925999943,58.620835679],[-3.556263800999886,58.613999742000075],[-3.532053188999896,58.60211823100012],[-3.447010870999861,58.613999742000075],[-3.391468878999916,58.60065338700015],[-3.364084438999953,58.600816148000106],[-3.350819464999915,58.620835679],[-3.386057094999956,58.631740627000156],[-3.412912563999953,58.65558502800006],[-3.374867316999968,58.677069403000175],[-3.358265753999916,58.675482489000146],[-3.35179602799991,58.66083405200011],[-3.34788977799991,58.65204498900006]]],[[[-2.885365363999938,58.820054429],[-2.919422980999855,58.806463934000035],[-2.921131964999859,58.7975121110001],[-2.913970506999931,58.78485748900012],[-2.926340298999946,58.77912018400015],[-2.915394660999908,58.76215241100009],[-2.911040818999908,58.7486839860001],[-2.917836066999939,58.73834870000009],[-2.939930792999917,58.730698960000055],[-2.987782355999855,58.757391669000086],[-2.987782355999855,58.76483795800006],[-2.974354620999861,58.77204010600009],[-2.984852667999917,58.787095445000105],[-3.015695766999897,58.8126488300001],[-2.991322394999912,58.80662669499999],[-2.978871222999913,58.80817291900003],[-2.967193162999905,58.8126488300001],[-2.967193162999905,58.820054429],[-3.035552537999877,58.820054429],[-3.035552537999877,58.82632070500013],[-2.996978318999908,58.83527252800015],[-2.952951626999891,58.83999258000007],[-2.906971808999856,58.838080145],[-2.883656378999945,58.83218008000007],[-2.885365363999938,58.820054429]]],[[[-3.246083136999857,58.89618561400006],[-3.193186001999919,58.85358307500003],[-3.207386847999913,58.84739817900005],[-3.207386847999913,58.83999258000007],[-3.18724524599989,58.836493231000176],[-3.172718878999945,58.82632070500013],[-3.172718878999945,58.820054429],[-3.21548417899993,58.81427643400012],[-3.236683722999942,58.805731512000094],[-3.248402472999913,58.792181708000115],[-3.218495245999861,58.79328034100017],[-3.160145636999857,58.80801015800007],[-3.131703253999945,58.806463934000035],[-3.156320766999926,58.7867699240001],[-3.205922003999945,58.77903880400008],[-3.29930579299986,58.77912018400015],[-3.327788865999963,58.818304755],[-3.358265753999916,58.83315664300015],[-3.378773566999939,58.85358307500003],[-3.379872199999909,58.85927969],[-3.373524542999888,58.86798737200009],[-3.378773566999939,58.87409088700018],[-3.385731574999852,58.87539297100007],[-3.397613084999904,58.869533596000124],[-3.411976691999882,58.87498607000008],[-3.43016516799986,58.87482330900009],[-3.433338995999918,58.88495514500006],[-3.41633053299995,58.908270575000145],[-3.393218553999901,58.920233466000084],[-3.349354620999861,58.92853424700017],[-3.337147589999887,58.92869700700014],[-3.28758704299986,58.905951239],[-3.265451626999891,58.902044989],[-3.246083136999857,58.89618561400006]]],[[[-3.156158006999874,59.14223867400004],[-3.121571417999888,59.12396881700015],[-3.084543423999946,59.12799713700012],[-3.074208136999857,59.12376536700002],[-3.049183722999942,59.10809967700011],[-3.070301886999857,59.101263739],[-3.051421678999901,59.09015534100017],[-2.994496222999885,59.07330963700015],[-3.008168097999913,59.06655508000013],[-2.994496222999885,59.05971914300004],[-3.05370032499988,59.04726797100001],[-3.062814907999893,59.0494652360001],[-3.071197068999936,59.033433335],[-3.090931769999884,59.018744208],[-3.113921678999958,59.008205471000124],[-3.131703253999945,59.00507233300006],[-3.097320115999906,58.99404531500004],[-3.059722459999904,58.991400458000115],[-3.044585740999906,58.997992255],[-3.029204881999874,59.01032135600015],[-3.011952277999853,59.01740143400012],[-2.974436001999919,58.999090887000065],[-2.933094855999911,59.01129791900003],[-2.917307094999956,59.00617096600011],[-2.895375128999916,58.991034247000115],[-2.878407355999855,58.99823639500015],[-2.885365363999938,58.977118231000034],[-2.864735480999911,58.974839585000055],[-2.831166144999884,58.98769765800007],[-2.790150519999884,58.99225495000003],[-2.78062903599988,58.990301825000174],[-2.775380011999886,58.98395416900014],[-2.781890428999901,58.97394440300015],[-2.837554490999906,58.950384833000115],[-2.826242641999926,58.93740469000012],[-2.811919725999928,58.92914459800012],[-2.794789191999911,58.92609284100014],[-2.775380011999886,58.92869700700014],[-2.795969204999921,58.956691799000154],[-2.777577277999882,58.95750560100008],[-2.744048631999931,58.96918366100006],[-2.727650519999941,58.97089264500006],[-2.713612433999884,58.96686432500012],[-2.707630988999881,58.95897044500013],[-2.70653235599994,58.93244049700017],[-2.714751756999931,58.92548248900009],[-2.733754035999937,58.92015208500011],[-2.771962042999888,58.915716864000146],[-2.785023566999882,58.91071198100009],[-2.808013475999928,58.88800690300015],[-2.823841925999886,58.881537177000055],[-2.91502844999988,58.899115302],[-2.926828579999949,58.90485260600015],[-2.981190558999884,58.960109768000066],[-2.993763800999943,58.95880768400015],[-3.023833787999905,58.940497137000094],[-3.0423884759999,58.943019924000126],[-3.052561001999948,58.93878815300009],[-3.084543423999946,58.943019924000126],[-3.070301886999857,58.92869700700014],[-3.101226365999878,58.93012116100003],[-3.113189256999931,58.92666250200001],[-3.118031378999888,58.915716864000146],[-3.142648891999897,58.921210028000175],[-3.202788865999878,58.915920315],[-3.22789466099988,58.92869700700014],[-3.23851477799991,58.950913804],[-3.235340949999852,58.97256094000009],[-3.22329667899993,58.99135976800012],[-3.207386847999913,59.00507233300006],[-3.207386847999913,59.01129791900003],[-3.22044837099989,59.024115302000055],[-3.22789466099988,59.0385602890001],[-3.245838995999918,59.03050364799999],[-3.247222459999904,59.02484772300009],[-3.240956183999856,59.018133856000034],[-3.240956183999856,59.01129791900003],[-3.259185350999928,59.01581452000009],[-3.275786912999905,59.01129791900003],[-3.266590949999909,59.007147528000175],[-3.263050910999937,59.00092194200012],[-3.264068162999905,58.99306875200013],[-3.256988084999932,58.97833893400015],[-3.26537024599989,58.96918366100006],[-3.289418097999942,58.956691799000154],[-3.289418097999942,58.950384833000115],[-3.323231574999909,58.95718008000013],[-3.353260870999861,58.98281484600001],[-3.366688605999855,59.01609935100011],[-3.350819464999915,59.046047268000095],[-3.34398352799991,59.05280182500012],[-3.350209113999881,59.09796784100017],[-3.323801235999895,59.12742747600005],[-3.279286261999886,59.14354075700011],[-3.231068488999938,59.14842357],[-3.182728644999912,59.147162177000084],[-3.156158006999874,59.14223867400004]]],[[[-2.614857550999943,59.15216705900012],[-2.617787238999881,59.14842357],[-2.590077277999882,59.14887116100009],[-2.577951626999891,59.147202867000075],[-2.569406704999949,59.14223867400004],[-2.58234615799995,59.143988348000036],[-2.592884894999941,59.138576565000065],[-2.595204230999883,59.12954336100016],[-2.583648240999878,59.12055084800012],[-2.571603969999956,59.11884186400012],[-2.535267706999946,59.12799713700012],[-2.534738735999895,59.12287018400009],[-2.541981574999909,59.12055084800012],[-2.548451300999915,59.10903554900001],[-2.542388475999928,59.102972723],[-2.514759894999912,59.09381745000003],[-2.532622850999871,59.083563544000086],[-2.576039191999939,59.080064195000105],[-2.597320115999906,59.07330963700015],[-2.599476691999911,59.09589264500015],[-2.614369269999941,59.10724518400012],[-2.634429490999906,59.10862864800002],[-2.651844855999883,59.101263739],[-2.649159308999913,59.08551666900014],[-2.670725063999924,59.081529039000074],[-2.686105923999946,59.08917877800009],[-2.665516730999911,59.10809967700011],[-2.622425910999908,59.11644114799999],[-2.617787238999881,59.12799713700012],[-2.665516730999911,59.15521881700012],[-2.625640428999958,59.16242096600014],[-2.61156165299991,59.161444403000175],[-2.61156165299991,59.15521881700012],[-2.614857550999943,59.15216705900012]]],[[[-3.029123501999891,59.18235911700013],[-2.967884894999941,59.18744538000006],[-2.952951626999891,59.18317291900014],[-2.952463344999927,59.178168036],[-2.97716223899991,59.16339752800003],[-2.974029100999928,59.147528387000094],[-2.97524980399993,59.13377513200008],[-3.004790818999908,59.12799713700012],[-3.065581834999932,59.133612372000115],[-3.091786261999886,59.142808335],[-3.114654100999871,59.1583519550001],[-3.120432094999927,59.17658112200017],[-3.102406378999916,59.190252997000115],[-3.074208136999857,59.19749583500014],[-3.049183722999942,59.196844794000086],[-3.042551235999952,59.186346747000115],[-3.035552537999877,59.18317291900014],[-3.029123501999891,59.18235911700013]]],[[[-2.768625454999949,59.244614976000136],[-2.768625454999949,59.237860419000086],[-2.743641730999855,59.238104559000035],[-2.734201626999919,59.23334381700012],[-2.727650519999941,59.22418854400014],[-2.761097785999908,59.19310130400005],[-2.758941209999904,59.16421133000013],[-2.751088019999912,59.15607330900012],[-2.734486456999946,59.15521881700012],[-2.734486456999946,59.14842357],[-2.781361456999917,59.141424872000115],[-2.789133266999926,59.145331122000115],[-2.792551235999923,59.158636786000116],[-2.801625128999916,59.16815827000012],[-2.814768032999893,59.17389557500009],[-2.830067511999857,59.17576732000008],[-2.830067511999857,59.196844794000086],[-2.817290818999908,59.19122955900018],[-2.785959438999953,59.196844794000086],[-2.791900193999879,59.2369652360001],[-2.787912563999896,59.24721914300012],[-2.777455206999917,59.25291575700011],[-2.761097785999908,59.2521019550001],[-2.761097785999908,59.244614976000136],[-2.768625454999949,59.244614976000136]]],[[[-2.395497199999909,59.29507070500016],[-2.392486131999902,59.28546784100017],[-2.439808722999942,59.28416575700008],[-2.458973761999914,59.279120184000035],[-2.46694902299987,59.26821523600016],[-2.477853969999956,59.26276276200004],[-2.504505988999881,59.23338450700011],[-2.514759894999912,59.23041413000011],[-2.516265428999873,59.25214264500009],[-2.533111131999874,59.251166083000115],[-2.576812303999958,59.22418854400014],[-2.569406704999949,59.237860419000086],[-2.569406704999949,59.244614976000136],[-2.588612433999913,59.23867422100001],[-2.596791144999912,59.2391625020001],[-2.60415605399993,59.244614976000136],[-2.641224738999938,59.217962958],[-2.661854620999861,59.20709870000012],[-2.679269985999923,59.20990631700006],[-2.681874152999853,59.196356512000094],[-2.687652147999898,59.19017161700013],[-2.692616339999859,59.19228750200013],[-2.69294186099998,59.20368073100009],[-2.687977667999917,59.217962958],[-2.681019660999937,59.22313060100002],[-2.658802863999881,59.23041413000011],[-2.624623175999886,59.25828685100008],[-2.595570441999911,59.26483795800014],[-2.591135219999927,59.27875397300012],[-2.61156165299991,59.29303620000003],[-2.587717251999919,59.29315827],[-2.547230597999885,59.30573151200018],[-2.522124803999901,59.306708075000145],[-2.522124803999901,59.29926178600009],[-2.551828579999921,59.28742096600003],[-2.576812303999958,59.27130768400015],[-2.566273566999882,59.268784898000135],[-2.563221808999884,59.26508209800009],[-2.551625128999888,59.27081940300015],[-2.518788214999887,59.274318752000156],[-2.492421027999882,59.28937409100017],[-2.446400519999941,59.29303620000003],[-2.411040818999908,59.31899648600002],[-2.404896613999938,59.31635163000011],[-2.395497199999909,59.29507070500016]]],[[[-2.946359829999921,59.34955475500014],[-2.963937954999949,59.34023672100001],[-2.9603572259999,59.32656484600007],[-2.987782355999855,59.32656484600007],[-2.987782355999855,59.31976959800012],[-2.895497199999909,59.30296458500011],[-2.870961066999882,59.27130768400015],[-2.839019334999875,59.26508209800009],[-2.830067511999857,59.25828685100008],[-2.830067511999857,59.2521019550001],[-2.850087042999917,59.25214264500009],[-2.862172003999916,59.24721914300012],[-2.885365363999938,59.23041413000011],[-2.882232225999871,59.24603913],[-2.870961066999882,59.25828685100008],[-2.920318162999962,59.28314850500011],[-2.947417772999898,59.29120514500015],[-2.974680141999954,59.29303620000003],[-2.974680141999954,59.285589911000145],[-2.9603572259999,59.27130768400015],[-2.974680141999954,59.27875397300012],[-2.982411261999886,59.26992422100007],[-2.9896541009999,59.26707591400013],[-3.008168097999913,59.27130768400015],[-3.020253058999913,59.28034088700015],[-3.039947068999879,59.31199778900013],[-3.049183722999942,59.31976959800012],[-3.073353644999941,59.32453034100003],[-3.077056443999879,59.33405182500003],[-3.024322068999879,59.33038971600017],[-3.008168097999913,59.33405182500003],[-2.980336066999882,59.35504791900017],[-2.965199347999885,59.360907294000114],[-2.946685350999871,59.353908596000124],[-2.946359829999921,59.34955475500014]]],[[[-1.608143683999913,59.54734935100008],[-1.610422329999892,59.53949616100009],[-1.596750454999949,59.53949616100009],[-1.596750454999949,59.532049872000115],[-1.631255662999877,59.5169945330001],[-1.64549719999988,59.51410553600006],[-1.651275193999936,59.528957424000126],[-1.643666144999912,59.545640367000075],[-1.625233527999882,59.555812893],[-1.602853969999956,59.56024811400009],[-1.583119269999912,59.55996328300013],[-1.583851691999939,59.553697007],[-1.60366777299987,59.55093008000013],[-1.608143683999913,59.54734935100008]]]]}}